[
  {
    "district": "Kreis 1",
    "zip": "8001"
  },
  {
    "district": "Kreis 2",
    "zip": "8038"
  },
  {
    "district": "Kreis 11",
    "zip": "8052"
  },
  {
    "district": "Kreis 2",
    "zip": "8038"
  },
  {
    "district": "Kreis 9",
    "zip": "8047"
  },
  {
    "district": "Kreis 1",
    "zip": "8001"
  },
  {
    "district": "Kreis 1",
    "zip": "8001"
  },
  {
    "district": "Kreis 7",
    "zip": "8053"
  },
  {
    "district": "Kreis 10",
    "zip": "8037"
  },
  {
    "district": "Kreis 4",
    "zip": "8004"
  },
  {
    "district": "Kreis 11",
    "zip": "8050"
  },
  {
    "district": "Kreis 6",
    "zip": "8037"
  },
  {
    "district": "Kreis 1",
    "zip": "8021"
  },
  {
    "district": "Kreis 6",
    "zip": "8006"
  },
  {
    "district": "Kreis 1",
    "zip": "8001"
  },
  {
    "district": "Kreis 2",
    "zip": "8038"
  },
  {
    "district": "Kreis 2",
    "zip": "8002"
  },
  {
    "district": "Kreis 10",
    "zip": "8049"
  },
  {
    "district": "Kreis 1",
    "zip": "8001"
  },
  {
    "district": "Kreis 6",
    "zip": "8031"
  },
  {
    "district": "Kreis 1",
    "zip": "8001"
  },
  {
    "district": "Kreis 1",
    "zip": "8001"
  },
  {
    "district": "Kreis 9",
    "zip": "8063"
  },
  {
    "district": "Kreis 2",
    "zip": "8002"
  },
  {
    "district": "Kreis 10",
    "zip": "8037"
  },
  {
    "district": "Kreis 2",
    "zip": "8002"
  },
  {
    "district": "Kreis 10",
    "zip": "8037"
  },
  {
    "district": "Kreis 10",
    "zip": "8093"
  },
  {
    "district": "Kreis 2",
    "zip": "8002"
  },
  {
    "district": "Kreis 2",
    "zip": "8002"
  },
  {
    "district": "Kreis 10",
    "zip": "8064"
  },
  {
    "district": "Kreis 1",
    "zip": "8001"
  },
  {
    "district": "Kreis 1",
    "zip": "8001"
  },
  {
    "district": "Kreis 6",
    "zip": "8006"
  },
  {
    "district": "Kreis 1",
    "zip": "8001"
  },
  {
    "district": "Kreis 10",
    "zip": "8037"
  },
  {
    "district": "Kreis 1",
    "zip": "8001"
  },
  {
    "district": "Kreis 7",
    "zip": "8032"
  },
  {
    "district": "Kreis 2",
    "zip": "8002"
  },
  {
    "district": "Kreis 4",
    "zip": "8004"
  },
  {
    "district": "Kreis 6",
    "zip": "8037"
  },
  {
    "district": "Kreis 10",
    "zip": "8037"
  },
  {
    "district": "Kreis 6",
    "zip": "8092"
  },
  {
    "district": "Kreis 3",
    "zip": "8055"
  },
  {
    "district": "Kreis 7",
    "zip": "8008"
  },
  {
    "district": "Kreis 6",
    "zip": "8006"
  },
  {
    "district": "Kreis 10",
    "zip": "8049"
  },
  {
    "district": "Kreis 6",
    "zip": "8031"
  },
  {
    "zip": "8047"
  },
  {
    "district": "Kreis 10",
    "zip": "8037"
  },
  {
    "district": "Kreis 7",
    "zip": "8032"
  },
  {
    "district": "Kreis 10",
    "zip": "8037"
  },
  {
    "district": "Kreis 11",
    "zip": "8057"
  },
  {
    "district": "Kreis 10",
    "zip": "8037"
  },
  {
    "district": "Kreis 12",
    "zip": "8051"
  },
  {
    "district": "Kreis 12",
    "zip": "8301"
  },
  {
    "district": "Kreis 1",
    "zip": "8001"
  },
  {
    "district": "Kreis 10",
    "zip": "8037"
  },
  {
    "district": "Kreis 1",
    "zip": "8001"
  },
  {
    "district": "Kreis 1",
    "zip": "8001"
  },
  {
    "district": "Kreis 4",
    "zip": "8004"
  },
  {
    "district": "Kreis 10",
    "zip": "8064"
  },
  {
    "district": "Kreis 11",
    "zip": "8046"
  },
  {
    "district": "Kreis 1",
    "zip": "8001"
  },
  {
    "district": "Kreis 10",
    "zip": "8037"
  },
  {
    "district": "Kreis 10",
    "zip": "8049"
  },
  {
    "district": "Kreis 1",
    "zip": "8001"
  },
  {
    "district": "Kreis 10",
    "zip": "8049"
  },
  {
    "district": "Kreis 10",
    "zip": "8037"
  },
  {
    "district": "Kreis 10",
    "zip": "8037"
  },
  {
    "district": "Kreis 10",
    "zip": "8037"
  },
  {
    "district": "Kreis 2",
    "zip": "8002"
  },
  {
    "district": "Kreis 10",
    "zip": "8037"
  },
  {
    "district": "Kreis 10",
    "zip": "8037"
  },
  {
    "district": "Kreis 10",
    "zip": "8037"
  },
  {
    "district": "Kreis 10",
    "zip": "8037"
  },
  {
    "district": "Kreis 10",
    "zip": "8064"
  },
  {
    "district": "Kreis 1",
    "zip": "8001"
  },
  {
    "district": "Kreis 10",
    "zip": "8049"
  },
  {
    "district": "Kreis 10",
    "zip": "8037"
  },
  {
    "district": "Kreis 1",
    "zip": "8001"
  },
  {
    "district": "Kreis 1",
    "zip": "8001"
  },
  {
    "district": "Kreis 6",
    "zip": "8037"
  },
  {
    "district": "Kreis 1",
    "zip": "8092"
  },
  {
    "district": "Kreis 1",
    "zip": "8092"
  },
  {
    "district": "Kreis 1",
    "zip": "8092"
  },
  {
    "district": "Kreis 2",
    "zip": "8002"
  },
  {
    "district": "Kreis 6",
    "zip": "8006"
  },
  {
    "district": "Kreis 8",
    "zip": "8008"
  },
  {
    "district": "Kreis 1",
    "zip": "8001"
  },
  {
    "district": "Kreis 10",
    "zip": "8037"
  },
  {
    "district": "Kreis 10",
    "zip": "8037"
  },
  {
    "district": "Kreis 10",
    "zip": "8037"
  },
  {
    "district": "Kreis 10",
    "zip": "8037"
  },
  {
    "district": "Kreis 10",
    "zip": "8037"
  },
  {
    "district": "Kreis 8",
    "zip": "8008"
  },
  {
    "district": "Kreis 8",
    "zip": "8008"
  },
  {
    "district": "Kreis 8",
    "zip": "8008"
  },
  {
    "district": "Kreis 8",
    "zip": "8008"
  },
  {
    "district": "Kreis 1",
    "zip": "8001"
  },
  {
    "district": "Kreis 10",
    "zip": "8037"
  },
  {
    "district": "Kreis 6",
    "zip": "8037"
  },
  {
    "district": "Kreis 5",
    "zip": "8005"
  },
  {
    "district": "Kreis 10",
    "zip": "8049"
  },
  {
    "district": "Kreis 3",
    "zip": "8003"
  },
  {
    "district": "Kreis 6",
    "zip": "8057"
  },
  {
    "district": "Kreis 1",
    "zip": "8021"
  },
  {
    "district": "Kreis 10",
    "zip": "8037"
  },
  {
    "district": "Kreis 1",
    "zip": "8001"
  },
  {
    "district": "Kreis 5",
    "zip": "8031"
  },
  {
    "district": "Kreis 6",
    "zip": "8042"
  },
  {
    "district": "Kreis 6",
    "zip": "8042"
  },
  {
    "district": "Kreis 6",
    "zip": "8042"
  },
  {
    "district": "Kreis 6",
    "zip": "8042"
  },
  {
    "district": "Kreis 6",
    "zip": "8042"
  },
  {
    "district": "Kreis 6",
    "zip": "8037"
  },
  {
    "district": "Kreis 10",
    "zip": "8037"
  },
  {
    "district": "Kreis 1",
    "zip": "8021"
  },
  {
    "district": "Kreis 10",
    "zip": "8037"
  },
  {
    "district": "Kreis 4",
    "zip": "8004"
  },
  {
    "district": "Kreis 11",
    "zip": "8046"
  },
  {
    "district": "Kreis 5",
    "zip": "8005"
  },
  {
    "district": "Kreis 2",
    "zip": "8002"
  },
  {
    "district": "Kreis 1",
    "zip": "8001"
  },
  {
    "district": "Kreis 1",
    "zip": "8001"
  },
  {
    "district": "Kreis 10",
    "zip": "8037"
  },
  {
    "district": "Kreis 1",
    "zip": "8001"
  },
  {
    "district": "Kreis 1",
    "zip": "8001"
  },
  {
    "district": "Kreis 3",
    "zip": "8003"
  },
  {
    "district": "Kreis 1",
    "zip": "8001"
  },
  {
    "district": "Kreis 10",
    "zip": "8037"
  },
  {
    "district": "Kreis 1",
    "zip": "8001"
  },
  {
    "district": "Kreis 1",
    "zip": "8001"
  },
  {
    "district": "Kreis 1",
    "zip": "8001"
  },
  {
    "district": "Kreis 2",
    "zip": "8038"
  },
  {
    "district": "Kreis 10",
    "zip": "8064"
  },
  {
    "district": "Kreis 10",
    "zip": "8037"
  },
  {
    "district": "Kreis 10",
    "zip": "8037"
  },
  {
    "district": "Kreis 2",
    "zip": "8038"
  },
  {
    "district": "Kreis 10",
    "zip": "8093"
  },
  {
    "district": "Kreis 5",
    "zip": "8005"
  },
  {
    "district": "Kreis 11",
    "zip": "8052"
  },
  {
    "district": "Kreis 1",
    "zip": "8001"
  },
  {
    "district": "Kreis 6",
    "zip": "8037"
  },
  {
    "district": "Kreis 1",
    "zip": "8021"
  },
  {
    "district": "Kreis 1",
    "zip": "8001"
  },
  {
    "district": "Kreis 3",
    "zip": "8003"
  },
  {
    "district": "Kreis 10",
    "zip": "8037"
  },
  {
    "district": "Kreis 4",
    "zip": "8004"
  },
  {
    "district": "Kreis 1",
    "zip": "8022"
  },
  {
    "district": "Kreis 1",
    "zip": "8021"
  },
  {
    "district": "Kreis 2",
    "zip": "8041"
  },
  {
    "district": "Kreis 4",
    "zip": "8004"
  },
  {
    "district": "Kreis 2",
    "zip": "8041"
  },
  {
    "district": "Kreis 3",
    "zip": "8003"
  },
  {
    "district": "Kreis 1",
    "zip": "8001"
  },
  {
    "district": "Kreis 10",
    "zip": "8037"
  },
  {
    "district": "Kreis 10",
    "zip": "8037"
  },
  {
    "district": "Kreis 10",
    "zip": "8037"
  },
  {
    "district": "Kreis 10",
    "zip": "8037"
  },
  {
    "district": "Kreis 10",
    "zip": "8037"
  },
  {
    "district": "Kreis 10",
    "zip": "8037"
  },
  {
    "district": "Kreis 1",
    "zip": "8001"
  },
  {
    "district": "Kreis 10",
    "zip": "8037"
  },
  {
    "district": "Kreis 10",
    "zip": "8037"
  },
  {
    "district": "Kreis 10",
    "zip": "8037"
  },
  {
    "district": "Kreis 10",
    "zip": "8037"
  },
  {
    "district": "Kreis 5",
    "zip": "8005"
  },
  {
    "district": "Kreis 1",
    "zip": "8001"
  },
  {
    "district": "Kreis 1",
    "zip": "8001"
  },
  {
    "district": "Kreis 11",
    "zip": "8046"
  },
  {
    "district": "Kreis 10",
    "zip": "8064"
  },
  {
    "district": "Kreis 1",
    "zip": "8001"
  },
  {
    "district": "Kreis 11",
    "zip": "8046"
  },
  {
    "district": "Kreis 10",
    "zip": "8037"
  },
  {
    "district": "Kreis 6",
    "zip": "8006"
  },
  {
    "district": "Kreis 1",
    "zip": "8001"
  },
  {
    "district": "Kreis 1",
    "zip": "8001"
  },
  {
    "district": "Kreis 3",
    "zip": "8003"
  },
  {
    "district": "Kreis 11",
    "zip": "8052"
  },
  {
    "district": "Kreis 1",
    "zip": "8001"
  },
  {
    "district": "Kreis 1",
    "zip": "8001"
  },
  {
    "district": "Kreis 1",
    "zip": "8001"
  },
  {
    "district": "Kreis 1",
    "zip": "8001"
  },
  {
    "district": "Kreis 1",
    "zip": "8001"
  },
  {
    "district": "Kreis 1",
    "zip": "8001"
  },
  {
    "district": "Kreis 1",
    "zip": "8001"
  },
  {
    "district": "Kreis 1",
    "zip": "8001"
  },
  {
    "district": "Kreis 7",
    "zip": "8032"
  },
  {
    "district": "Kreis 1",
    "zip": "8001"
  },
  {
    "district": "Kreis 1",
    "zip": "8001"
  },
  {
    "district": "Kreis 1",
    "zip": "8001"
  },
  {
    "district": "Kreis 5",
    "zip": "8005"
  },
  {
    "district": "Kreis 10",
    "zip": "8049"
  },
  {
    "district": "Kreis 9",
    "zip": "8048"
  },
  {
    "district": "Kreis 1",
    "zip": "8001"
  },
  {
    "district": "Kreis 1",
    "zip": "8001"
  },
  {
    "district": "Kreis 1",
    "zip": "8001"
  },
  {
    "district": "Kreis 10",
    "zip": "8064"
  },
  {
    "district": "Kreis 5",
    "zip": "8031"
  },
  {
    "district": "Kreis 10",
    "zip": "8037"
  },
  {
    "district": "Kreis 10",
    "zip": "8037"
  },
  {
    "district": "Kreis 11",
    "zip": "8052"
  },
  {
    "district": "Kreis 1",
    "zip": "8001"
  },
  {
    "district": "Kreis 1",
    "zip": "8001"
  },
  {
    "district": "Kreis 6",
    "zip": "8057"
  },
  {
    "district": "Kreis 9",
    "zip": "8047"
  },
  {
    "district": "Kreis 10",
    "zip": "8037"
  },
  {
    "district": "Kreis 1",
    "zip": "8001"
  },
  {
    "district": "Kreis 1",
    "zip": "8001"
  },
  {
    "district": "Kreis 1",
    "zip": "8001"
  },
  {
    "district": "Kreis 1",
    "zip": "8001"
  },
  {
    "district": "Kreis 11",
    "zip": "8046"
  },
  {
    "district": "Kreis 4",
    "zip": "8004"
  },
  {
    "district": "Kreis 11",
    "zip": "8052"
  },
  {
    "district": "Kreis 11",
    "zip": "8052"
  },
  {
    "district": "Kreis 3",
    "zip": "8003"
  },
  {
    "district": "Kreis 1",
    "zip": "8001"
  },
  {
    "district": "Kreis 1",
    "zip": "8001"
  },
  {
    "district": "Kreis 1",
    "zip": "8001"
  },
  {
    "district": "Kreis 1",
    "zip": "8001"
  },
  {
    "district": "Kreis 4",
    "zip": "8004"
  },
  {
    "district": "Kreis 3",
    "zip": "8003"
  },
  {
    "district": "Kreis 1",
    "zip": "8001"
  },
  {
    "district": "Kreis 1",
    "zip": "8001"
  },
  {
    "district": "Kreis 1",
    "zip": "8090"
  },
  {
    "district": "Kreis 1",
    "zip": "8001"
  },
  {
    "district": "Kreis 5",
    "zip": "8005"
  },
  {
    "district": "Kreis 10",
    "zip": "8037"
  },
  {},
  {
    "district": "Kreis 1",
    "zip": "8001"
  },
  {
    "district": "Kreis 5",
    "zip": "8005"
  },
  {
    "district": "Kreis 1",
    "zip": "8001"
  },
  {
    "district": "Kreis 3",
    "zip": "8003"
  },
  {
    "district": "Kreis 2",
    "zip": "8002"
  },
  {
    "district": "Kreis 12",
    "zip": "8301"
  },
  {
    "district": "Kreis 10",
    "zip": "8037"
  },
  {
    "district": "Kreis 10",
    "zip": "8037"
  },
  {
    "district": "Kreis 6",
    "zip": "8006"
  },
  {
    "district": "Kreis 6",
    "zip": "8006"
  },
  {
    "district": "Kreis 6",
    "zip": "8006"
  },
  {
    "district": "Kreis 1",
    "zip": "8001"
  },
  {
    "district": "Kreis 1",
    "zip": "8001"
  },
  {
    "district": "Kreis 1",
    "zip": "8001"
  },
  {
    "district": "Kreis 1",
    "zip": "8021"
  },
  {
    "district": "Kreis 1",
    "zip": "8001"
  },
  {
    "district": "Kreis 1",
    "zip": "8001"
  },
  {
    "district": "Kreis 2",
    "zip": "8002"
  },
  {
    "district": "Kreis 2",
    "zip": "8002"
  },
  {
    "district": "Kreis 3",
    "zip": "8003"
  },
  {
    "district": "Kreis 2",
    "zip": "8002"
  },
  {
    "district": "Kreis 2",
    "zip": "8002"
  },
  {
    "zip": "8046"
  },
  {
    "district": "Kreis 1",
    "zip": "8001"
  },
  {
    "district": "Kreis 5",
    "zip": "8005"
  },
  {
    "district": "Kreis 7",
    "zip": "8091"
  },
  {
    "district": "Kreis 7",
    "zip": "8091"
  },
  {
    "district": "Kreis 7",
    "zip": "8032"
  },
  {
    "district": "Kreis 1",
    "zip": "8021"
  },
  {
    "district": "Kreis 1",
    "zip": "8001"
  },
  {
    "district": "Kreis 2",
    "zip": "8002"
  },
  {
    "district": "Kreis 11",
    "zip": "8046"
  },
  {
    "district": "Kreis 11",
    "zip": "8052"
  },
  {
    "district": "Kreis 11",
    "zip": "8052"
  },
  {
    "district": "Kreis 9",
    "zip": "8048"
  },
  {
    "district": "Kreis 11",
    "zip": "8046"
  },
  {
    "district": "Kreis 11",
    "zip": "8052"
  },
  {
    "district": "Kreis 7",
    "zip": "8033"
  },
  {
    "district": "Kreis 11",
    "zip": "8046"
  },
  {
    "district": "Kreis 12",
    "zip": "8301"
  },
  {
    "district": "Kreis 1",
    "zip": "8001"
  },
  {
    "district": "Kreis 2",
    "zip": "8002"
  },
  {
    "district": "Kreis 2",
    "zip": "8002"
  },
  {
    "district": "Kreis 2",
    "zip": "8002"
  },
  {
    "district": "Kreis 1",
    "zip": "8001"
  },
  {
    "district": "Kreis 2",
    "zip": "8002"
  },
  {
    "district": "Kreis 2",
    "zip": "8002"
  },
  {
    "district": "Kreis 2",
    "zip": "8002"
  },
  {
    "district": "Kreis 2",
    "zip": "8002"
  },
  {
    "district": "Kreis 2",
    "zip": "8002"
  },
  {
    "district": "Kreis 1",
    "zip": "8001"
  },
  {
    "district": "Kreis 1",
    "zip": "8001"
  },
  {
    "district": "Kreis 10",
    "zip": "8037"
  },
  {
    "district": "Kreis 2",
    "zip": "8002"
  },
  {
    "district": "Kreis 8",
    "zip": "8008"
  },
  {
    "district": "Kreis 6",
    "zip": "8006"
  },
  {
    "district": "Kreis 10",
    "zip": "8049"
  },
  {
    "district": "Kreis 1",
    "zip": "8022"
  },
  {
    "district": "Kreis 1",
    "zip": "8001"
  },
  {
    "district": "Kreis 1",
    "zip": "8001"
  },
  {
    "district": "Kreis 1",
    "zip": "8021"
  },
  {
    "district": "Kreis 8",
    "zip": "8008"
  },
  {
    "district": "Kreis 1",
    "zip": "8001"
  },
  {
    "district": "Kreis 1",
    "zip": "8001"
  },
  {
    "district": "Kreis 1",
    "zip": "8001"
  },
  {
    "district": "Kreis 1",
    "zip": "8021"
  },
  {
    "district": "Kreis 1",
    "zip": "8021"
  },
  {
    "district": "Kreis 1",
    "zip": "8021"
  },
  {
    "district": "Kreis 1",
    "zip": "8021"
  },
  {
    "district": "Kreis 1",
    "zip": "8001"
  },
  {
    "district": "Kreis 1",
    "zip": "8001"
  },
  {
    "district": "Kreis 1",
    "zip": "8001"
  },
  {
    "district": "Kreis 2",
    "zip": "8002"
  },
  {
    "district": "Kreis 6",
    "zip": "8006"
  },
  {
    "district": "Kreis 1",
    "zip": "8001"
  },
  {
    "district": "Kreis 1",
    "zip": "8001"
  },
  {
    "district": "Kreis 2",
    "zip": "8041"
  },
  {
    "district": "Kreis 3",
    "zip": "8045"
  },
  {
    "district": "Kreis 1",
    "zip": "8001"
  },
  {
    "district": "Kreis 1",
    "zip": "8001"
  },
  {
    "district": "Kreis 1",
    "zip": "8001"
  },
  {
    "district": "Kreis 1",
    "zip": "8001"
  },
  {
    "district": "Kreis 11",
    "zip": "8057"
  },
  {
    "district": "Kreis 1",
    "zip": "8001"
  },
  {
    "district": "Kreis 1",
    "zip": "8001"
  },
  {
    "district": "Kreis 2",
    "zip": "8002"
  },
  {
    "district": "Kreis 2",
    "zip": "8002"
  },
  {
    "district": "Kreis 2",
    "zip": "8002"
  },
  {
    "district": "Kreis 2",
    "zip": "8002"
  },
  {
    "district": "Kreis 2",
    "zip": "8002"
  },
  {
    "district": "Kreis 2",
    "zip": "8002"
  },
  {
    "district": "Kreis 2",
    "zip": "8002"
  },
  {
    "district": "Kreis 2",
    "zip": "8038"
  },
  {
    "district": "Kreis 1",
    "zip": "8001"
  },
  {
    "district": "Kreis 3",
    "zip": "8003"
  },
  {
    "district": "Kreis 10",
    "zip": "8049"
  },
  {
    "district": "Kreis 10",
    "zip": "8049"
  },
  {
    "district": "Kreis 10",
    "zip": "8049"
  },
  {
    "district": "Kreis 8",
    "zip": "8008"
  },
  {
    "district": "Kreis 5",
    "zip": "8005"
  },
  {
    "district": "Kreis 1",
    "zip": "8001"
  },
  {
    "district": "Kreis 1",
    "zip": "8091"
  },
  {
    "district": "Kreis 4",
    "zip": "8004"
  },
  {
    "district": "Kreis 1",
    "zip": "8001"
  },
  {
    "district": "Kreis 1",
    "zip": "8092"
  },
  {
    "district": "Kreis 3",
    "zip": "8003"
  },
  {
    "district": "Kreis 1",
    "zip": "8022"
  },
  {
    "district": "Kreis 1",
    "zip": "8001"
  },
  {
    "district": "Kreis 1",
    "zip": "8001"
  },
  {
    "district": "Kreis 1",
    "zip": "8001"
  },
  {
    "district": "Kreis 1",
    "zip": "8001"
  },
  {
    "district": "Kreis 1",
    "zip": "8001"
  },
  {
    "district": "Kreis 6",
    "zip": "8092"
  },
  {
    "district": "Kreis 4",
    "zip": "8004"
  },
  {
    "district": "Kreis 4",
    "zip": "8004"
  },
  {
    "district": "Kreis 4",
    "zip": "8004"
  },
  {
    "district": "Kreis 6",
    "zip": "8006"
  },
  {
    "district": "Kreis 4",
    "zip": "8004"
  },
  {
    "district": "Kreis 9",
    "zip": "8049"
  },
  {
    "district": "Kreis 3",
    "zip": "8003"
  },
  {
    "district": "Kreis 3",
    "zip": "8003"
  },
  {
    "district": "Kreis 4",
    "zip": "8004"
  },
  {
    "district": "Kreis 3",
    "zip": "8003"
  },
  {
    "district": "Kreis 4",
    "zip": "8004"
  },
  {
    "district": "Kreis 4",
    "zip": "8004"
  },
  {
    "district": "Kreis 4",
    "zip": "8004"
  },
  {
    "district": "Kreis 4",
    "zip": "8004"
  },
  {
    "district": "Kreis 2",
    "zip": "8002"
  },
  {
    "district": "Kreis 9",
    "zip": "8049"
  },
  {
    "district": "Kreis 1",
    "zip": "8001"
  },
  {
    "district": "Kreis 3",
    "zip": "8003"
  },
  {
    "district": "Kreis 9",
    "zip": "8047"
  },
  {
    "district": "Kreis 4",
    "zip": "8004"
  },
  {
    "district": "Kreis 3",
    "zip": "8003"
  },
  {
    "district": "Kreis 4",
    "zip": "8004"
  },
  {
    "district": "Kreis 3",
    "zip": "8003"
  },
  {
    "district": "Kreis 10",
    "zip": "8037"
  },
  {
    "district": "Kreis 10",
    "zip": "8064"
  },
  {
    "district": "Kreis 4",
    "zip": "8004"
  },
  {
    "district": "Kreis 11",
    "zip": "8057"
  },
  {
    "district": "Kreis 11",
    "zip": "8046"
  },
  {
    "district": "Kreis 5",
    "zip": "8031"
  },
  {
    "district": "Kreis 4",
    "zip": "8004"
  },
  {
    "district": "Kreis 5",
    "zip": "8031"
  },
  {},
  {
    "district": "Kreis 10",
    "zip": "8037"
  },
  {
    "district": "Kreis 10",
    "zip": "8037"
  },
  {
    "district": "Kreis 10",
    "zip": "8037"
  },
  {
    "district": "Kreis 10",
    "zip": "8037"
  },
  {
    "district": "Kreis 3",
    "zip": "8055"
  },
  {
    "district": "Kreis 4",
    "zip": "8004"
  },
  {
    "district": "Kreis 3",
    "zip": "8003"
  },
  {
    "district": "Kreis 5",
    "zip": "8005"
  },
  {
    "district": "Kreis 9",
    "zip": "8049"
  },
  {
    "district": "Kreis 6",
    "zip": "8006"
  },
  {
    "district": "Kreis 1",
    "zip": "8022"
  },
  {
    "district": "Kreis 2",
    "zip": "8002"
  },
  {
    "district": "Kreis 2",
    "zip": "8002"
  },
  {
    "district": "Kreis 9",
    "zip": "8047"
  },
  {
    "district": "Kreis 6",
    "zip": "8006"
  },
  {
    "district": "Kreis 1",
    "zip": "8001"
  },
  {
    "district": "Kreis 3",
    "zip": "8003"
  },
  {
    "district": "Kreis 5",
    "zip": "8005"
  },
  {
    "district": "Kreis 6",
    "zip": "8006"
  },
  {
    "district": "Kreis 2",
    "zip": "8038"
  },
  {
    "district": "Kreis 7",
    "zip": "8032"
  },
  {
    "district": "Kreis 9",
    "zip": "8048"
  },
  {
    "district": "Kreis 6",
    "zip": "8006"
  },
  {
    "district": "Kreis 1",
    "zip": "8001"
  },
  {
    "district": "Kreis 1",
    "zip": "8001"
  },
  {
    "district": "Kreis 1",
    "zip": "8022"
  },
  {
    "district": "Kreis 5",
    "zip": "8005"
  },
  {
    "district": "Kreis 4",
    "zip": "8004"
  },
  {
    "district": "Kreis 1",
    "zip": "8092"
  },
  {
    "district": "Kreis 2",
    "zip": "8002"
  },
  {
    "district": "Kreis 4",
    "zip": "8004"
  },
  {
    "district": "Kreis 9",
    "zip": "8047"
  },
  {
    "district": "Kreis 2",
    "zip": "8002"
  },
  {
    "district": "Kreis 2",
    "zip": "8038"
  },
  {
    "district": "Kreis 1",
    "zip": "8001"
  },
  {
    "district": "Kreis 1",
    "zip": "8091"
  },
  {
    "district": "Kreis 10",
    "zip": "8049"
  },
  {
    "district": "Kreis 10",
    "zip": "8049"
  },
  {
    "district": "Kreis 1",
    "zip": "8001"
  },
  {
    "district": "Kreis 6",
    "zip": "8057"
  },
  {
    "district": "Kreis 1",
    "zip": "8001"
  },
  {
    "district": "Kreis 6",
    "zip": "8006"
  },
  {
    "district": "Kreis 4",
    "zip": "8004"
  },
  {
    "district": "Kreis 9",
    "zip": "8064"
  },
  {
    "district": "Kreis 10",
    "zip": "8049"
  },
  {
    "district": "Kreis 3",
    "zip": "8003"
  },
  {
    "district": "Kreis 9",
    "zip": "8047"
  },
  {
    "district": "Kreis 4",
    "zip": "8004"
  },
  {
    "district": "Kreis 9",
    "zip": "8047"
  },
  {
    "district": "Kreis 9",
    "zip": "8047"
  },
  {
    "district": "Kreis 9",
    "zip": "8047"
  },
  {
    "district": "Kreis 9",
    "zip": "8047"
  },
  {
    "district": "Kreis 2",
    "zip": "8002"
  },
  {
    "district": "Kreis 2",
    "zip": "8002"
  },
  {
    "district": "Kreis 1",
    "zip": "8090"
  },
  {
    "district": "Kreis 11",
    "zip": "8057"
  },
  {
    "district": "Kreis 6",
    "zip": "8057"
  },
  {
    "district": "Kreis 1",
    "zip": "8022"
  },
  {
    "district": "Kreis 9",
    "zip": "8049"
  },
  {
    "district": "Kreis 7",
    "zip": "8032"
  },
  {
    "district": "Kreis 1",
    "zip": "8001"
  },
  {
    "district": "Kreis 11",
    "zip": "8057"
  },
  {
    "district": "Kreis 11",
    "zip": "8050"
  },
  {
    "district": "Kreis 5",
    "zip": "8005"
  },
  {
    "district": "Kreis 6",
    "zip": "8006"
  },
  {
    "district": "Kreis 6",
    "zip": "8006"
  },
  {
    "district": "Kreis 4",
    "zip": "8004"
  },
  {
    "district": "Kreis 2",
    "zip": "8002"
  },
  {
    "district": "Kreis 1",
    "zip": "8001"
  },
  {
    "district": "Kreis 1",
    "zip": "8001"
  },
  {
    "district": "Kreis 3",
    "zip": "8003"
  },
  {
    "district": "Kreis 5",
    "zip": "8031"
  },
  {
    "district": "Kreis 5",
    "zip": "8031"
  },
  {
    "district": "Kreis 1",
    "zip": "8001"
  },
  {
    "district": "Kreis 1",
    "zip": "8001"
  },
  {
    "district": "Kreis 7",
    "zip": "8032"
  },
  {
    "district": "Kreis 3",
    "zip": "8003"
  },
  {
    "district": "Kreis 4",
    "zip": "8004"
  },
  {
    "district": "Kreis 9",
    "zip": "8048"
  },
  {
    "district": "Kreis 1",
    "zip": "8001"
  },
  {
    "district": "Kreis 1",
    "zip": "8001"
  },
  {
    "district": "Kreis 1",
    "zip": "8001"
  },
  {
    "district": "Kreis 1",
    "zip": "8001"
  },
  {
    "district": "Kreis 1",
    "zip": "8001"
  },
  {
    "district": "Kreis 11",
    "zip": "8046"
  },
  {
    "district": "Kreis 7",
    "zip": "8032"
  },
  {
    "district": "Kreis 1",
    "zip": "8001"
  },
  {
    "district": "Kreis 6",
    "zip": "8006"
  },
  {
    "district": "Kreis 6",
    "zip": "8092"
  },
  {
    "district": "Kreis 11",
    "zip": "8046"
  },
  {
    "district": "Kreis 1",
    "zip": "8001"
  },
  {
    "district": "Kreis 1",
    "zip": "8001"
  },
  {
    "district": "Kreis 1",
    "zip": "8001"
  },
  {
    "district": "Kreis 2",
    "zip": "8002"
  },
  {
    "district": "Kreis 4",
    "zip": "8004"
  },
  {
    "district": "Kreis 11",
    "zip": "8050"
  },
  {
    "district": "Kreis 1",
    "zip": "8001"
  },
  {
    "district": "Kreis 6",
    "zip": "8057"
  },
  {
    "district": "Kreis 5",
    "zip": "8031"
  },
  {
    "district": "Kreis 4",
    "zip": "8004"
  },
  {
    "district": "Kreis 4",
    "zip": "8004"
  },
  {
    "district": "Kreis 1",
    "zip": "8001"
  },
  {
    "district": "Kreis 1",
    "zip": "8001"
  },
  {
    "district": "Kreis 10",
    "zip": "8049"
  },
  {
    "district": "Kreis 10",
    "zip": "8049"
  },
  {
    "district": "Kreis 5",
    "zip": "8005"
  },
  {
    "district": "Kreis 11",
    "zip": "8052"
  },
  {
    "district": "Kreis 5",
    "zip": "8031"
  },
  {
    "district": "Kreis 2",
    "zip": "8002"
  },
  {
    "district": "Kreis 7",
    "zip": "8091"
  },
  {
    "district": "Kreis 11",
    "zip": "8046"
  },
  {
    "district": "Kreis 1",
    "zip": "8021"
  },
  {
    "district": "Kreis 4",
    "zip": "8004"
  },
  {
    "district": "Kreis 2",
    "zip": "8041"
  },
  {
    "district": "Kreis 1",
    "zip": "8001"
  },
  {
    "district": "Kreis 3",
    "zip": "8003"
  },
  {
    "district": "Kreis 8",
    "zip": "8008"
  },
  {
    "district": "Kreis 9",
    "zip": "8048"
  },
  {
    "district": "Kreis 2",
    "zip": "8002"
  },
  {
    "district": "Kreis 9",
    "zip": "8047"
  },
  {
    "district": "Kreis 11",
    "zip": "8046"
  },
  {
    "district": "Kreis 9",
    "zip": "8049"
  },
  {
    "district": "Kreis 1",
    "zip": "8001"
  },
  {
    "district": "Kreis 3",
    "zip": "8055"
  },
  {
    "district": "Kreis 3",
    "zip": "8055"
  },
  {
    "district": "Kreis 3",
    "zip": "8003"
  },
  {
    "district": "Kreis 3",
    "zip": "8003"
  },
  {
    "district": "Kreis 5",
    "zip": "8005"
  },
  {
    "district": "Kreis 10",
    "zip": "8037"
  },
  {
    "district": "Kreis 7",
    "zip": "8044"
  },
  {
    "district": "Kreis 4",
    "zip": "8004"
  },
  {
    "district": "Kreis 9",
    "zip": "8048"
  },
  {
    "district": "Kreis 9",
    "zip": "8064"
  },
  {
    "district": "Kreis 9",
    "zip": "8048"
  },
  {
    "district": "Kreis 9",
    "zip": "8048"
  },
  {
    "district": "Kreis 9",
    "zip": "8048"
  },
  {
    "district": "Kreis 9",
    "zip": "8048"
  },
  {
    "district": "Kreis 9",
    "zip": "8048"
  },
  {
    "district": "Kreis 9",
    "zip": "8048"
  },
  {
    "district": "Kreis 9",
    "zip": "8048"
  },
  {
    "district": "Kreis 9",
    "zip": "8048"
  },
  {
    "district": "Kreis 9",
    "zip": "8064"
  },
  {
    "district": "Kreis 11",
    "zip": "8052"
  },
  {
    "district": "Kreis 10",
    "zip": "8049"
  },
  {
    "district": "Kreis 2",
    "zip": "8002"
  },
  {
    "district": "Kreis 4",
    "zip": "8004"
  },
  {
    "district": "Kreis 1",
    "zip": "8001"
  },
  {
    "district": "Kreis 1",
    "zip": "8001"
  },
  {
    "district": "Kreis 11",
    "zip": "8057"
  },
  {
    "district": "Kreis 11",
    "zip": "8050"
  },
  {
    "district": "Kreis 2",
    "zip": "8038"
  },
  {
    "district": "Kreis 2",
    "zip": "8038"
  },
  {
    "zip": "8046"
  },
  {
    "district": "Kreis 11",
    "zip": "8046"
  },
  {
    "district": "Kreis 5",
    "zip": "8005"
  },
  {
    "district": "Kreis 7",
    "zip": "8032"
  },
  {
    "district": "Kreis 2",
    "zip": "8002"
  },
  {
    "district": "Kreis 1",
    "zip": "8022"
  },
  {
    "district": "Kreis 2",
    "zip": "8002"
  },
  {
    "district": "Kreis 2",
    "zip": "8002"
  },
  {
    "district": "Kreis 9",
    "zip": "8048"
  },
  {
    "district": "Kreis 1",
    "zip": "8001"
  },
  {
    "district": "Kreis 5",
    "zip": "8005"
  },
  {
    "district": "Kreis 1",
    "zip": "8022"
  },
  {
    "district": "Kreis 2",
    "zip": "8041"
  },
  {
    "district": "Kreis 1",
    "zip": "8001"
  },
  {
    "district": "Kreis 1",
    "zip": "8022"
  },
  {
    "district": "Kreis 9",
    "zip": "8048"
  },
  {
    "district": "Kreis 9",
    "zip": "8064"
  },
  {
    "district": "Kreis 9",
    "zip": "8048"
  },
  {
    "district": "Kreis 9",
    "zip": "8064"
  },
  {
    "district": "Kreis 9",
    "zip": "8064"
  },
  {
    "district": "Kreis 9",
    "zip": "8064"
  },
  {
    "district": "Kreis 6",
    "zip": "8006"
  },
  {
    "district": "Kreis 4",
    "zip": "8004"
  },
  {
    "district": "Kreis 6",
    "zip": "8006"
  },
  {
    "district": "Kreis 6",
    "zip": "8006"
  },
  {
    "district": "Kreis 3",
    "zip": "8003"
  },
  {
    "district": "Kreis 6",
    "zip": "8006"
  },
  {
    "district": "Kreis 6",
    "zip": "8006"
  },
  {
    "district": "Kreis 5",
    "zip": "8005"
  },
  {
    "district": "Kreis 1",
    "zip": "8090"
  },
  {
    "district": "Kreis 3",
    "zip": "8045"
  },
  {
    "district": "Kreis 7",
    "zip": "8044"
  },
  {
    "district": "Kreis 10",
    "zip": "8049"
  },
  {
    "district": "Kreis 10",
    "zip": "8049"
  },
  {
    "district": "Kreis 9",
    "zip": "8064"
  },
  {
    "district": "Kreis 9",
    "zip": "8047"
  },
  {
    "district": "Kreis 9",
    "zip": "8049"
  },
  {
    "district": "Kreis 6",
    "zip": "8006"
  },
  {
    "district": "Kreis 1",
    "zip": "8001"
  },
  {
    "district": "Kreis 9",
    "zip": "8048"
  },
  {
    "district": "Kreis 2",
    "zip": "8002"
  },
  {
    "district": "Kreis 9",
    "zip": "8064"
  },
  {
    "district": "Kreis 4",
    "zip": "8004"
  },
  {
    "district": "Kreis 1",
    "zip": "8021"
  },
  {
    "district": "Kreis 1",
    "zip": "8092"
  },
  {
    "district": "Kreis 11",
    "zip": "8050"
  },
  {
    "district": "Kreis 10",
    "zip": "8049"
  },
  {
    "district": "Kreis 7",
    "zip": "8032"
  },
  {
    "district": "Kreis 9",
    "zip": "8048"
  },
  {
    "district": "Kreis 2",
    "zip": "8038"
  },
  {
    "district": "Kreis 1",
    "zip": "8022"
  },
  {
    "district": "Kreis 11",
    "zip": "8050"
  },
  {
    "district": "Kreis 11",
    "zip": "8046"
  },
  {
    "district": "Kreis 7",
    "zip": "8053"
  },
  {
    "district": "Kreis 3",
    "zip": "8003"
  },
  {
    "district": "Kreis 10",
    "zip": "8049"
  },
  {
    "district": "Kreis 12",
    "zip": "8050"
  },
  {
    "district": "Kreis 1",
    "zip": "8092"
  },
  {
    "district": "Kreis 10",
    "zip": "8049"
  },
  {
    "district": "Kreis 1",
    "zip": "8001"
  },
  {
    "district": "Kreis 9",
    "zip": "8048"
  },
  {
    "district": "Kreis 7",
    "zip": "8032"
  },
  {
    "district": "Kreis 2",
    "zip": "8038"
  },
  {
    "district": "Kreis 3",
    "zip": "8003"
  },
  {
    "district": "Kreis 1",
    "zip": "8022"
  },
  {
    "district": "Kreis 2",
    "zip": "8002"
  },
  {
    "district": "Kreis 2",
    "zip": "8002"
  },
  {
    "district": "Kreis 5",
    "zip": "8005"
  },
  {
    "district": "Kreis 2",
    "zip": "8002"
  },
  {
    "district": "Kreis 2",
    "zip": "8002"
  },
  {
    "district": "Kreis 8",
    "zip": "8008"
  },
  {
    "district": "Kreis 2",
    "zip": "8038"
  },
  {
    "district": "Kreis 3",
    "zip": "8045"
  },
  {
    "district": "Kreis 2",
    "zip": "8038"
  },
  {
    "district": "Kreis 11",
    "zip": "8050"
  },
  {
    "district": "Kreis 10",
    "zip": "8093"
  },
  {
    "district": "Kreis 1",
    "zip": "8001"
  },
  {
    "district": "Kreis 1",
    "zip": "8001"
  },
  {
    "district": "Kreis 7",
    "zip": "8032"
  },
  {
    "district": "Kreis 6",
    "zip": "8006"
  },
  {
    "district": "Kreis 11",
    "zip": "8052"
  },
  {
    "district": "Kreis 1",
    "zip": "8001"
  },
  {
    "district": "Kreis 1",
    "zip": "8001"
  },
  {
    "district": "Kreis 6",
    "zip": "8006"
  },
  {
    "district": "Kreis 6",
    "zip": "8006"
  },
  {
    "district": "Kreis 1",
    "zip": "8022"
  },
  {
    "district": "Kreis 5",
    "zip": "8005"
  },
  {
    "district": "Kreis 2",
    "zip": "8002"
  },
  {
    "district": "Kreis 2",
    "zip": "8002"
  },
  {
    "district": "Kreis 4",
    "zip": "8004"
  },
  {
    "district": "Kreis 4",
    "zip": "8004"
  },
  {
    "district": "Kreis 4",
    "zip": "8004"
  },
  {
    "district": "Kreis 4",
    "zip": "8004"
  },
  {
    "district": "Kreis 1",
    "zip": "8021"
  },
  {
    "district": "Kreis 4",
    "zip": "8004"
  },
  {
    "district": "Kreis 4",
    "zip": "8004"
  },
  {
    "district": "Kreis 4",
    "zip": "8004"
  },
  {
    "district": "Kreis 4",
    "zip": "8004"
  },
  {
    "district": "Kreis 4",
    "zip": "8004"
  },
  {
    "district": "Kreis 4",
    "zip": "8004"
  },
  {
    "district": "Kreis 4",
    "zip": "8004"
  },
  {
    "district": "Kreis 4",
    "zip": "8004"
  },
  {
    "district": "Kreis 4",
    "zip": "8004"
  },
  {
    "district": "Kreis 4",
    "zip": "8004"
  },
  {
    "district": "Kreis 4",
    "zip": "8004"
  },
  {
    "district": "Kreis 4",
    "zip": "8004"
  },
  {
    "district": "Kreis 4",
    "zip": "8004"
  },
  {
    "district": "Kreis 4",
    "zip": "8004"
  },
  {
    "district": "Kreis 4",
    "zip": "8004"
  },
  {
    "district": "Kreis 4",
    "zip": "8004"
  },
  {
    "district": "Kreis 4",
    "zip": "8004"
  },
  {
    "district": "Kreis 1",
    "zip": "8021"
  },
  {
    "district": "Kreis 1",
    "zip": "8022"
  },
  {
    "district": "Kreis 1",
    "zip": "8021"
  },
  {
    "district": "Kreis 4",
    "zip": "8004"
  },
  {
    "district": "Kreis 4",
    "zip": "8004"
  },
  {
    "district": "Kreis 1",
    "zip": "8001"
  },
  {
    "district": "Kreis 1",
    "zip": "8001"
  },
  {
    "district": "Kreis 1",
    "zip": "8001"
  },
  {
    "district": "Kreis 11",
    "zip": "8052"
  },
  {
    "district": "Kreis 2",
    "zip": "8038"
  },
  {
    "district": "Kreis 2",
    "zip": "8038"
  },
  {
    "district": "Kreis 1",
    "zip": "8001"
  },
  {
    "district": "Kreis 11",
    "zip": "8050"
  },
  {
    "district": "Kreis 5",
    "zip": "8031"
  },
  {
    "district": "Kreis 6",
    "zip": "8006"
  },
  {
    "district": "Kreis 4",
    "zip": "8004"
  },
  {
    "district": "Kreis 11",
    "zip": "8052"
  },
  {
    "district": "Kreis 6",
    "zip": "8006"
  },
  {
    "district": "Kreis 1",
    "zip": "8001"
  },
  {
    "district": "Kreis 4",
    "zip": "8004"
  },
  {
    "district": "Kreis 11",
    "zip": "8050"
  },
  {
    "district": "Kreis 11",
    "zip": "8046"
  },
  {
    "district": "Kreis 11",
    "zip": "8046"
  },
  {
    "district": "Kreis 11",
    "zip": "8046"
  },
  {
    "district": "Kreis 6",
    "zip": "8006"
  },
  {
    "district": "Kreis 3",
    "zip": "8055"
  },
  {
    "district": "Kreis 9",
    "zip": "8047"
  },
  {
    "district": "Kreis 6",
    "zip": "8042"
  },
  {
    "district": "Kreis 6",
    "zip": "8006"
  },
  {
    "district": "Kreis 8",
    "zip": "8008"
  },
  {
    "district": "Kreis 9",
    "zip": "8064"
  },
  {
    "district": "Kreis 9",
    "zip": "8064"
  },
  {
    "district": "Kreis 6",
    "zip": "8092"
  },
  {
    "district": "Kreis 7",
    "zip": "8053"
  },
  {
    "zip": "8064"
  },
  {
    "district": "Kreis 2",
    "zip": "8002"
  },
  {
    "district": "Kreis 1",
    "zip": "8001"
  },
  {
    "district": "Kreis 9",
    "zip": "8064"
  },
  {
    "district": "Kreis 5",
    "zip": "8031"
  },
  {
    "district": "Kreis 9",
    "zip": "8047"
  },
  {
    "district": "Kreis 2",
    "zip": "8002"
  },
  {
    "district": "Kreis 10",
    "zip": "8049"
  },
  {
    "district": "Kreis 11",
    "zip": "8052"
  },
  {
    "district": "Kreis 11",
    "zip": "8052"
  },
  {
    "district": "Kreis 11",
    "zip": "8050"
  },
  {
    "district": "Kreis 11",
    "zip": "8050"
  },
  {
    "district": "Kreis 3",
    "zip": "8055"
  },
  {
    "district": "Kreis 4",
    "zip": "8004"
  },
  {
    "district": "Kreis 11",
    "zip": "8050"
  },
  {
    "district": "Kreis 11",
    "zip": "8052"
  },
  {
    "district": "Kreis 4",
    "zip": "8004"
  },
  {
    "district": "Kreis 2",
    "zip": "8038"
  },
  {
    "district": "Kreis 9",
    "zip": "8048"
  },
  {
    "district": "Kreis 6",
    "zip": "8057"
  },
  {
    "district": "Kreis 6",
    "zip": "8042"
  },
  {
    "district": "Kreis 3",
    "zip": "8063"
  },
  {
    "district": "Kreis 3",
    "zip": "8063"
  },
  {
    "district": "Kreis 11",
    "zip": "8052"
  },
  {
    "district": "Kreis 7",
    "zip": "8032"
  },
  {
    "district": "Kreis 1",
    "zip": "8090"
  },
  {
    "district": "Kreis 6",
    "zip": "8006"
  },
  {
    "district": "Kreis 7",
    "zip": "8032"
  },
  {
    "district": "Kreis 7",
    "zip": "8032"
  },
  {
    "district": "Kreis 7",
    "zip": "8032"
  },
  {
    "district": "Kreis 4",
    "zip": "8004"
  },
  {
    "district": "Kreis 7",
    "zip": "8053"
  },
  {
    "district": "Kreis 7",
    "zip": "8053"
  },
  {
    "district": "Kreis 6",
    "zip": "8042"
  },
  {
    "district": "Kreis 1",
    "zip": "8090"
  },
  {
    "district": "Kreis 1",
    "zip": "8001"
  },
  {
    "district": "Kreis 4",
    "zip": "8004"
  },
  {
    "district": "Kreis 1",
    "zip": "8001"
  },
  {
    "district": "Kreis 6",
    "zip": "8006"
  },
  {
    "district": "Kreis 5",
    "zip": "8005"
  },
  {
    "district": "Kreis 10",
    "zip": "8093"
  },
  {
    "district": "Kreis 6",
    "zip": "8006"
  },
  {
    "district": "Kreis 6",
    "zip": "8006"
  },
  {
    "district": "Kreis 1",
    "zip": "8001"
  },
  {
    "district": "Kreis 1",
    "zip": "8001"
  },
  {
    "district": "Kreis 6",
    "zip": "8006"
  },
  {
    "district": "Kreis 4",
    "zip": "8004"
  },
  {
    "district": "Kreis 4",
    "zip": "8004"
  },
  {
    "district": "Kreis 4",
    "zip": "8004"
  },
  {
    "district": "Kreis 4",
    "zip": "8004"
  },
  {
    "district": "Kreis 4",
    "zip": "8004"
  },
  {
    "district": "Kreis 2",
    "zip": "8038"
  },
  {
    "district": "Kreis 6",
    "zip": "8006"
  },
  {
    "district": "Kreis 1",
    "zip": "8001"
  },
  {
    "district": "Kreis 9",
    "zip": "8047"
  },
  {
    "district": "Kreis 9",
    "zip": "8047"
  },
  {
    "district": "Kreis 9",
    "zip": "8048"
  },
  {
    "district": "Kreis 8",
    "zip": "8008"
  },
  {
    "district": "Kreis 2",
    "zip": "8002"
  },
  {
    "district": "Kreis 1",
    "zip": "8001"
  },
  {
    "district": "Kreis 2",
    "zip": "8002"
  },
  {
    "district": "Kreis 6",
    "zip": "8006"
  },
  {
    "district": "Kreis 4",
    "zip": "8004"
  },
  {
    "district": "Kreis 10",
    "zip": "8049"
  },
  {
    "district": "Kreis 10",
    "zip": "8049"
  },
  {
    "district": "Kreis 3",
    "zip": "8003"
  },
  {
    "district": "Kreis 7",
    "zip": "8053"
  },
  {
    "district": "Kreis 6",
    "zip": "8092"
  },
  {
    "district": "Kreis 4",
    "zip": "8004"
  },
  {
    "district": "Kreis 2",
    "zip": "8038"
  },
  {
    "district": "Kreis 6",
    "zip": "8006"
  },
  {
    "district": "Kreis 2",
    "zip": "8038"
  },
  {
    "district": "Kreis 9",
    "zip": "8047"
  },
  {
    "district": "Kreis 2",
    "zip": "8038"
  },
  {
    "district": "Kreis 2",
    "zip": "8002"
  },
  {
    "district": "Kreis 10",
    "zip": "8049"
  },
  {
    "district": "Kreis 2",
    "zip": "8002"
  },
  {
    "district": "Kreis 5",
    "zip": "8031"
  },
  {
    "district": "Kreis 7",
    "zip": "8053"
  },
  {
    "district": "Kreis 2",
    "zip": "8002"
  },
  {
    "district": "Kreis 7",
    "zip": "8053"
  },
  {
    "district": "Kreis 4",
    "zip": "8004"
  },
  {
    "district": "Kreis 5",
    "zip": "8031"
  },
  {
    "district": "Kreis 11",
    "zip": "8046"
  },
  {
    "district": "Kreis 7",
    "zip": "8053"
  },
  {
    "district": "Kreis 7",
    "zip": "8032"
  },
  {
    "district": "Kreis 10",
    "zip": "8064"
  },
  {
    "district": "Kreis 2",
    "zip": "8002"
  },
  {
    "district": "Kreis 2",
    "zip": "8002"
  },
  {
    "district": "Kreis 2",
    "zip": "8038"
  },
  {
    "district": "Kreis 6",
    "zip": "8006"
  },
  {
    "district": "Kreis 6",
    "zip": "8006"
  },
  {
    "district": "Kreis 6",
    "zip": "8006"
  },
  {
    "district": "Kreis 4",
    "zip": "8004"
  },
  {
    "district": "Kreis 9",
    "zip": "8049"
  },
  {
    "district": "Kreis 4",
    "zip": "8004"
  },
  {
    "district": "Kreis 6",
    "zip": "8006"
  },
  {
    "district": "Kreis 6",
    "zip": "8006"
  },
  {
    "district": "Kreis 6",
    "zip": "8006"
  },
  {
    "district": "Kreis 6",
    "zip": "8006"
  },
  {
    "district": "Kreis 6",
    "zip": "8006"
  },
  {
    "district": "Kreis 3",
    "zip": "8003"
  },
  {
    "district": "Kreis 3",
    "zip": "8003"
  },
  {
    "district": "Kreis 4",
    "zip": "8004"
  },
  {
    "district": "Kreis 2",
    "zip": "8002"
  },
  {
    "district": "Kreis 10",
    "zip": "8037"
  },
  {
    "district": "Kreis 2",
    "zip": "8038"
  },
  {
    "district": "Kreis 10",
    "zip": "8037"
  },
  {
    "district": "Kreis 3",
    "zip": "8003"
  },
  {
    "district": "Kreis 11",
    "zip": "8052"
  },
  {
    "district": "Kreis 11",
    "zip": "8050"
  },
  {
    "district": "Kreis 1",
    "zip": "8001"
  },
  {
    "district": "Kreis 6",
    "zip": "8006"
  },
  {
    "district": "Kreis 1",
    "zip": "8001"
  },
  {
    "district": "Kreis 3",
    "zip": "8003"
  },
  {
    "district": "Kreis 5",
    "zip": "8005"
  },
  {
    "district": "Kreis 6",
    "zip": "8006"
  },
  {
    "district": "Kreis 6",
    "zip": "8006"
  },
  {
    "district": "Kreis 6",
    "zip": "8031"
  },
  {
    "district": "Kreis 10",
    "zip": "8037"
  },
  {
    "district": "Kreis 1",
    "zip": "8092"
  },
  {
    "district": "Kreis 9",
    "zip": "8048"
  },
  {
    "district": "Kreis 11",
    "zip": "8052"
  },
  {
    "district": "Kreis 2",
    "zip": "8002"
  },
  {
    "district": "Kreis 10",
    "zip": "8037"
  },
  {
    "district": "Kreis 8",
    "zip": "8008"
  },
  {
    "district": "Kreis 9",
    "zip": "8048"
  },
  {
    "district": "Kreis 11",
    "zip": "8052"
  },
  {
    "district": "Kreis 12",
    "zip": "8051"
  },
  {
    "district": "Kreis 9",
    "zip": "8048"
  },
  {
    "district": "Kreis 1",
    "zip": "8001"
  },
  {
    "district": "Kreis 1",
    "zip": "8092"
  },
  {
    "district": "Kreis 7",
    "zip": "8053"
  },
  {
    "district": "Kreis 1",
    "zip": "8021"
  },
  {
    "district": "Kreis 6",
    "zip": "8042"
  },
  {
    "district": "Kreis 3",
    "zip": "8003"
  },
  {
    "district": "Kreis 10",
    "zip": "8037"
  },
  {
    "district": "Kreis 6",
    "zip": "8042"
  },
  {
    "district": "Kreis 1",
    "zip": "8001"
  },
  {
    "district": "Kreis 9",
    "zip": "8048"
  },
  {
    "district": "Kreis 6",
    "zip": "8092"
  },
  {
    "district": "Kreis 3",
    "zip": "8003"
  },
  {
    "district": "Kreis 8",
    "zip": "8008"
  },
  {
    "district": "Kreis 9",
    "zip": "8064"
  },
  {
    "district": "Kreis 8",
    "zip": "8008"
  },
  {
    "district": "Kreis 1",
    "zip": "8001"
  },
  {
    "district": "Kreis 6",
    "zip": "8037"
  },
  {
    "district": "Kreis 4",
    "zip": "8004"
  },
  {
    "district": "Kreis 6",
    "zip": "8006"
  },
  {
    "district": "Kreis 8",
    "zip": "8008"
  },
  {
    "zip": "8008"
  },
  {
    "district": "Kreis 5",
    "zip": "8005"
  },
  {
    "district": "Kreis 2",
    "zip": "8002"
  },
  {
    "district": "Kreis 1",
    "zip": "8092"
  },
  {
    "district": "Kreis 6",
    "zip": "8092"
  },
  {
    "district": "Kreis 1",
    "zip": "8001"
  },
  {
    "district": "Kreis 2",
    "zip": "8002"
  },
  {
    "district": "Kreis 2",
    "zip": "8002"
  },
  {
    "district": "Kreis 4",
    "zip": "8004"
  },
  {
    "district": "Kreis 1",
    "zip": "8092"
  },
  {
    "district": "Kreis 2",
    "zip": "8041"
  },
  {
    "district": "Kreis 2",
    "zip": "8002"
  },
  {
    "district": "Kreis 1",
    "zip": "8001"
  },
  {
    "district": "Kreis 7",
    "zip": "8053"
  },
  {
    "district": "Kreis 1",
    "zip": "8001"
  },
  {
    "district": "Kreis 6",
    "zip": "8006"
  },
  {
    "district": "Kreis 6",
    "zip": "8006"
  },
  {
    "district": "Kreis 9",
    "zip": "8064"
  },
  {
    "district": "Kreis 6",
    "zip": "8006"
  },
  {
    "district": "Kreis 6",
    "zip": "8006"
  },
  {
    "district": "Kreis 6",
    "zip": "8006"
  },
  {
    "district": "Kreis 2",
    "zip": "8002"
  },
  {
    "district": "Kreis 5",
    "zip": "8005"
  },
  {
    "district": "Kreis 9",
    "zip": "8048"
  },
  {
    "district": "Kreis 9",
    "zip": "8064"
  },
  {
    "district": "Kreis 6",
    "zip": "8042"
  },
  {
    "district": "Kreis 6",
    "zip": "8042"
  },
  {
    "district": "Kreis 2",
    "zip": "8002"
  },
  {
    "district": "Kreis 10",
    "zip": "8049"
  },
  {
    "district": "Kreis 11",
    "zip": "8046"
  },
  {
    "district": "Kreis 10",
    "zip": "8037"
  },
  {
    "district": "Kreis 2",
    "zip": "8002"
  },
  {
    "district": "Kreis 8",
    "zip": "8008"
  },
  {
    "district": "Kreis 1",
    "zip": "8001"
  },
  {
    "district": "Kreis 6",
    "zip": "8006"
  },
  {
    "district": "Kreis 6",
    "zip": "8031"
  },
  {
    "district": "Kreis 10",
    "zip": "8037"
  },
  {
    "district": "Kreis 10",
    "zip": "8037"
  },
  {
    "district": "Kreis 6",
    "zip": "8006"
  },
  {
    "district": "Kreis 6",
    "zip": "8006"
  },
  {
    "district": "Kreis 5",
    "zip": "8005"
  },
  {
    "district": "Kreis 11",
    "zip": "8052"
  },
  {
    "district": "Kreis 6",
    "zip": "8031"
  },
  {
    "district": "Kreis 4",
    "zip": "8004"
  },
  {
    "district": "Kreis 2",
    "zip": "8002"
  },
  {
    "district": "Kreis 2",
    "zip": "8038"
  },
  {
    "district": "Kreis 11",
    "zip": "8052"
  },
  {
    "district": "Kreis 4",
    "zip": "8004"
  },
  {
    "district": "Kreis 2",
    "zip": "8002"
  },
  {
    "district": "Kreis 11",
    "zip": "8052"
  },
  {
    "district": "Kreis 4",
    "zip": "8004"
  },
  {
    "district": "Kreis 5",
    "zip": "8031"
  },
  {
    "district": "Kreis 1",
    "zip": "8092"
  },
  {
    "district": "Kreis 7",
    "zip": "8091"
  },
  {
    "district": "Kreis 11",
    "zip": "8052"
  },
  {
    "district": "Kreis 11",
    "zip": "8052"
  },
  {
    "district": "Kreis 11",
    "zip": "8050"
  },
  {
    "district": "Kreis 5",
    "zip": "8005"
  },
  {
    "district": "Kreis 5",
    "zip": "8005"
  },
  {
    "district": "Kreis 5",
    "zip": "8005"
  },
  {
    "district": "Kreis 1",
    "zip": "8090"
  },
  {
    "district": "Kreis 6",
    "zip": "8042"
  },
  {
    "district": "Kreis 4",
    "zip": "8004"
  },
  {
    "district": "Kreis 4",
    "zip": "8004"
  },
  {
    "district": "Kreis 4",
    "zip": "8004"
  },
  {
    "district": "Kreis 1",
    "zip": "8021"
  },
  {
    "district": "Kreis 1",
    "zip": "8021"
  },
  {
    "district": "Kreis 1",
    "zip": "8021"
  },
  {
    "district": "Kreis 11",
    "zip": "8050"
  },
  {
    "district": "Kreis 11",
    "zip": "8050"
  },
  {
    "district": "Kreis 11",
    "zip": "8052"
  },
  {
    "district": "Kreis 9",
    "zip": "8049"
  },
  {
    "district": "Kreis 5",
    "zip": "8031"
  },
  {
    "district": "Kreis 9",
    "zip": "8064"
  },
  {
    "district": "Kreis 2",
    "zip": "8038"
  },
  {
    "district": "Kreis 3",
    "zip": "8003"
  },
  {
    "district": "Kreis 11",
    "zip": "8050"
  },
  {
    "district": "Kreis 6",
    "zip": "8006"
  },
  {
    "district": "Kreis 6",
    "zip": "8006"
  },
  {
    "district": "Kreis 7",
    "zip": "8032"
  },
  {
    "district": "Kreis 3",
    "zip": "8003"
  },
  {
    "district": "Kreis 3",
    "zip": "8003"
  },
  {
    "district": "Kreis 6",
    "zip": "8092"
  },
  {
    "district": "Kreis 9",
    "zip": "8047"
  },
  {
    "district": "Kreis 7",
    "zip": "8032"
  },
  {
    "district": "Kreis 6",
    "zip": "8092"
  },
  {
    "district": "Kreis 9",
    "zip": "8064"
  },
  {
    "district": "Kreis 6",
    "zip": "8006"
  },
  {
    "district": "Kreis 5",
    "zip": "8005"
  },
  {
    "district": "Kreis 2",
    "zip": "8041"
  },
  {
    "district": "Kreis 11",
    "zip": "8046"
  },
  {
    "district": "Kreis 12",
    "zip": "8050"
  },
  {
    "district": "Kreis 2",
    "zip": "8041"
  },
  {
    "district": "Kreis 6",
    "zip": "8006"
  },
  {
    "district": "Kreis 11",
    "zip": "8050"
  },
  {
    "district": "Kreis 12",
    "zip": "8050"
  },
  {
    "district": "Kreis 6",
    "zip": "8057"
  },
  {
    "district": "Kreis 6",
    "zip": "8092"
  },
  {
    "district": "Kreis 6",
    "zip": "8006"
  },
  {
    "district": "Kreis 3",
    "zip": "8045"
  },
  {
    "district": "Kreis 6",
    "zip": "8006"
  },
  {
    "district": "Kreis 6",
    "zip": "8006"
  },
  {
    "district": "Kreis 6",
    "zip": "8006"
  },
  {
    "district": "Kreis 2",
    "zip": "8002"
  },
  {
    "district": "Kreis 2",
    "zip": "8038"
  },
  {
    "district": "Kreis 2",
    "zip": "8038"
  },
  {
    "district": "Kreis 2",
    "zip": "8038"
  },
  {
    "district": "Kreis 1",
    "zip": "8001"
  },
  {
    "district": "Kreis 1",
    "zip": "8001"
  },
  {
    "district": "Kreis 1",
    "zip": "8001"
  },
  {
    "district": "Kreis 4",
    "zip": "8004"
  },
  {
    "district": "Kreis 4",
    "zip": "8004"
  },
  {
    "district": "Kreis 2",
    "zip": "8002"
  },
  {
    "district": "Kreis 11",
    "zip": "8052"
  },
  {
    "district": "Kreis 11",
    "zip": "8050"
  },
  {
    "district": "Kreis 1",
    "zip": "8001"
  },
  {
    "district": "Kreis 1",
    "zip": "8001"
  },
  {
    "district": "Kreis 5",
    "zip": "8005"
  },
  {
    "district": "Kreis 1",
    "zip": "8001"
  },
  {
    "district": "Kreis 2",
    "zip": "8038"
  },
  {
    "district": "Kreis 10",
    "zip": "8049"
  },
  {
    "district": "Kreis 1",
    "zip": "8092"
  },
  {
    "district": "Kreis 2",
    "zip": "8002"
  },
  {
    "district": "Kreis 2",
    "zip": "8002"
  },
  {
    "district": "Kreis 11",
    "zip": "8050"
  },
  {
    "district": "Kreis 1",
    "zip": "8001"
  },
  {
    "district": "Kreis 1",
    "zip": "8022"
  },
  {
    "district": "Kreis 4",
    "zip": "8004"
  },
  {
    "district": "Kreis 1",
    "zip": "8001"
  },
  {
    "district": "Kreis 2",
    "zip": "8041"
  },
  {
    "district": "Kreis 8",
    "zip": "8008"
  },
  {
    "district": "Kreis 8",
    "zip": "8008"
  },
  {
    "district": "Kreis 8",
    "zip": "8008"
  },
  {
    "district": "Kreis 2",
    "zip": "8002"
  },
  {
    "district": "Kreis 4",
    "zip": "8004"
  },
  {
    "district": "Kreis 6",
    "zip": "8092"
  },
  {
    "district": "Kreis 2",
    "zip": "8038"
  },
  {
    "district": "Kreis 6",
    "zip": "8092"
  },
  {
    "district": "Kreis 8",
    "zip": "8008"
  },
  {
    "district": "Kreis 8",
    "zip": "8008"
  },
  {
    "district": "Kreis 8",
    "zip": "8008"
  },
  {
    "district": "Kreis 8",
    "zip": "8008"
  },
  {
    "district": "Kreis 1",
    "zip": "8001"
  },
  {
    "district": "Kreis 1",
    "zip": "8001"
  },
  {
    "district": "Kreis 2",
    "zip": "8002"
  },
  {
    "district": "Kreis 3",
    "zip": "8003"
  },
  {
    "district": "Kreis 9",
    "zip": "8047"
  },
  {
    "district": "Kreis 2",
    "zip": "8002"
  },
  {
    "district": "Kreis 9",
    "zip": "8048"
  },
  {
    "district": "Kreis 9",
    "zip": "8048"
  },
  {
    "district": "Kreis 9",
    "zip": "8064"
  },
  {
    "district": "Kreis 9",
    "zip": "8064"
  },
  {
    "district": "Kreis 1",
    "zip": "8001"
  },
  {
    "district": "Kreis 1",
    "zip": "8001"
  },
  {
    "district": "Kreis 6",
    "zip": "8006"
  },
  {
    "district": "Kreis 1",
    "zip": "8001"
  },
  {
    "district": "Kreis 11",
    "zip": "8050"
  },
  {
    "district": "Kreis 1",
    "zip": "8001"
  },
  {
    "district": "Kreis 3",
    "zip": "8003"
  },
  {
    "district": "Kreis 2",
    "zip": "8002"
  },
  {
    "district": "Kreis 1",
    "zip": "8090"
  },
  {
    "district": "Kreis 12",
    "zip": "8050"
  },
  {
    "district": "Kreis 11",
    "zip": "8052"
  },
  {
    "district": "Kreis 1",
    "zip": "8001"
  },
  {
    "district": "Kreis 6",
    "zip": "8006"
  },
  {
    "district": "Kreis 11",
    "zip": "8050"
  },
  {
    "district": "Kreis 11",
    "zip": "8050"
  },
  {
    "district": "Kreis 2",
    "zip": "8038"
  },
  {
    "district": "Kreis 2",
    "zip": "8038"
  },
  {
    "district": "Kreis 2",
    "zip": "8038"
  },
  {
    "district": "Kreis 11",
    "zip": "8046"
  },
  {
    "district": "Kreis 6",
    "zip": "8037"
  },
  {
    "district": "Kreis 1",
    "zip": "8001"
  },
  {
    "district": "Kreis 10",
    "zip": "8037"
  },
  {
    "district": "Kreis 2",
    "zip": "8002"
  },
  {
    "district": "Kreis 6",
    "zip": "8042"
  },
  {
    "district": "Kreis 6",
    "zip": "8006"
  },
  {
    "district": "Kreis 9",
    "zip": "8047"
  },
  {
    "district": "Kreis 7",
    "zip": "8091"
  },
  {
    "district": "Kreis 6",
    "zip": "8006"
  },
  {
    "district": "Kreis 4",
    "zip": "8004"
  },
  {
    "district": "Kreis 6",
    "zip": "8037"
  },
  {
    "district": "Kreis 4",
    "zip": "8004"
  },
  {
    "district": "Kreis 6",
    "zip": "8006"
  },
  {
    "district": "Kreis 5",
    "zip": "8031"
  },
  {
    "district": "Kreis 12",
    "zip": "8051"
  },
  {
    "district": "Kreis 1",
    "zip": "8001"
  },
  {
    "district": "Kreis 8",
    "zip": "8008"
  },
  {
    "district": "Kreis 8",
    "zip": "8008"
  },
  {
    "district": "Kreis 2",
    "zip": "8038"
  },
  {
    "district": "Kreis 1",
    "zip": "8001"
  },
  {
    "district": "Kreis 1",
    "zip": "8001"
  },
  {
    "district": "Kreis 11",
    "zip": "8046"
  },
  {
    "district": "Kreis 1",
    "zip": "8001"
  },
  {
    "district": "Kreis 1",
    "zip": "8001"
  },
  {
    "district": "Kreis 2",
    "zip": "8038"
  },
  {
    "district": "Kreis 2",
    "zip": "8038"
  },
  {
    "district": "Kreis 2",
    "zip": "8038"
  },
  {
    "district": "Kreis 10",
    "zip": "8049"
  },
  {
    "district": "Kreis 10",
    "zip": "8049"
  },
  {
    "district": "Kreis 10",
    "zip": "8049"
  },
  {
    "district": "Kreis 5",
    "zip": "8005"
  },
  {
    "district": "Kreis 8",
    "zip": "8008"
  },
  {
    "district": "Kreis 1",
    "zip": "8092"
  },
  {
    "district": "Kreis 1",
    "zip": "8001"
  },
  {
    "district": "Kreis 1",
    "zip": "8001"
  },
  {
    "district": "Kreis 6",
    "zip": "8006"
  },
  {
    "district": "Kreis 2",
    "zip": "8002"
  },
  {
    "district": "Kreis 10",
    "zip": "8037"
  },
  {
    "district": "Kreis 4",
    "zip": "8004"
  },
  {
    "district": "Kreis 1",
    "zip": "8001"
  },
  {
    "district": "Kreis 1",
    "zip": "8001"
  },
  {
    "district": "Kreis 5",
    "zip": "8005"
  },
  {
    "district": "Kreis 5",
    "zip": "8005"
  },
  {
    "district": "Kreis 5",
    "zip": "8005"
  },
  {
    "district": "Kreis 10",
    "zip": "8064"
  },
  {
    "district": "Kreis 5",
    "zip": "8005"
  },
  {
    "district": "Kreis 11",
    "zip": "8050"
  },
  {
    "district": "Kreis 1",
    "zip": "8022"
  },
  {
    "district": "Kreis 11",
    "zip": "8052"
  },
  {
    "district": "Kreis 5",
    "zip": "8005"
  },
  {
    "district": "Kreis 10",
    "zip": "8037"
  },
  {
    "district": "Kreis 1",
    "zip": "8001"
  },
  {
    "district": "Kreis 2",
    "zip": "8038"
  },
  {
    "district": "Kreis 1",
    "zip": "8001"
  },
  {
    "district": "Kreis 4",
    "zip": "8004"
  },
  {
    "district": "Kreis 1",
    "zip": "8001"
  },
  {
    "district": "Kreis 11",
    "zip": "8052"
  },
  {
    "district": "Kreis 11",
    "zip": "8050"
  },
  {
    "district": "Kreis 3",
    "zip": "8003"
  },
  {
    "district": "Kreis 1",
    "zip": "8001"
  },
  {
    "district": "Kreis 4",
    "zip": "8004"
  },
  {
    "district": "Kreis 10",
    "zip": "8037"
  },
  {
    "district": "Kreis 4",
    "zip": "8004"
  },
  {
    "district": "Kreis 4",
    "zip": "8004"
  },
  {
    "district": "Kreis 6",
    "zip": "8006"
  },
  {
    "district": "Kreis 11",
    "zip": "8046"
  },
  {
    "district": "Kreis 11",
    "zip": "8050"
  },
  {
    "district": "Kreis 10",
    "zip": "8037"
  },
  {
    "district": "Kreis 2",
    "zip": "8002"
  },
  {
    "district": "Kreis 3",
    "zip": "8003"
  },
  {
    "district": "Kreis 2",
    "zip": "8002"
  },
  {
    "district": "Kreis 5",
    "zip": "8005"
  },
  {
    "district": "Kreis 6",
    "zip": "8006"
  },
  {
    "district": "Kreis 5",
    "zip": "8005"
  },
  {
    "district": "Kreis 5",
    "zip": "8005"
  },
  {
    "district": "Kreis 11",
    "zip": "8052"
  },
  {
    "district": "Kreis 1",
    "zip": "8001"
  },
  {
    "district": "Kreis 10",
    "zip": "8049"
  },
  {
    "district": "Kreis 10",
    "zip": "8049"
  },
  {
    "district": "Kreis 10",
    "zip": "8049"
  },
  {
    "district": "Kreis 10",
    "zip": "8049"
  },
  {
    "district": "Kreis 11",
    "zip": "8052"
  },
  {
    "district": "Kreis 10",
    "zip": "8049"
  },
  {
    "district": "Kreis 11",
    "zip": "8052"
  },
  {
    "district": "Kreis 9",
    "zip": "8048"
  },
  {
    "district": "Kreis 4",
    "zip": "8004"
  },
  {
    "district": "Kreis 10",
    "zip": "8037"
  },
  {
    "district": "Kreis 4",
    "zip": "8004"
  },
  {
    "district": "Kreis 10",
    "zip": "8049"
  },
  {
    "district": "Kreis 5",
    "zip": "8005"
  },
  {
    "district": "Kreis 3",
    "zip": "8063"
  },
  {
    "district": "Kreis 2",
    "zip": "8038"
  },
  {
    "district": "Kreis 1",
    "zip": "8001"
  },
  {
    "district": "Kreis 1",
    "zip": "8001"
  },
  {
    "district": "Kreis 1",
    "zip": "8001"
  },
  {
    "district": "Kreis 5",
    "zip": "8005"
  },
  {
    "district": "Kreis 5",
    "zip": "8005"
  },
  {
    "district": "Kreis 1",
    "zip": "8001"
  },
  {
    "district": "Kreis 11",
    "zip": "8052"
  },
  {
    "district": "Kreis 6",
    "zip": "8006"
  },
  {
    "district": "Kreis 1",
    "zip": "8001"
  },
  {
    "district": "Kreis 1",
    "zip": "8001"
  },
  {
    "district": "Kreis 12",
    "zip": "8050"
  },
  {
    "district": "Kreis 1",
    "zip": "8001"
  },
  {
    "district": "Kreis 1",
    "zip": "8001"
  },
  {
    "district": "Kreis 2",
    "zip": "8038"
  },
  {
    "district": "Kreis 2",
    "zip": "8038"
  },
  {
    "district": "Kreis 10",
    "zip": "8037"
  },
  {
    "district": "Kreis 1",
    "zip": "8001"
  },
  {
    "district": "Kreis 2",
    "zip": "8002"
  },
  {
    "district": "Kreis 1",
    "zip": "8001"
  },
  {
    "district": "Kreis 7",
    "zip": "8032"
  },
  {
    "district": "Kreis 8",
    "zip": "8008"
  },
  {
    "district": "Kreis 2",
    "zip": "8002"
  },
  {
    "district": "Kreis 1",
    "zip": "8001"
  },
  {
    "district": "Kreis 1",
    "zip": "8022"
  },
  {
    "district": "Kreis 11",
    "zip": "8050"
  },
  {
    "district": "Kreis 8",
    "zip": "8008"
  },
  {
    "district": "Kreis 2",
    "zip": "8038"
  },
  {
    "district": "Kreis 5",
    "zip": "8005"
  },
  {
    "district": "Kreis 3",
    "zip": "8003"
  },
  {
    "district": "Kreis 11",
    "zip": "8052"
  },
  {
    "district": "Kreis 2",
    "zip": "8038"
  },
  {
    "zip": "8046"
  },
  {
    "district": "Kreis 3",
    "zip": "8003"
  },
  {
    "district": "Kreis 1",
    "zip": "8001"
  },
  {
    "district": "Kreis 7",
    "zip": "8032"
  },
  {
    "district": "Kreis 9",
    "zip": "8047"
  },
  {
    "district": "Kreis 1",
    "zip": "8090"
  },
  {
    "district": "Kreis 6",
    "zip": "8006"
  },
  {
    "district": "Kreis 2",
    "zip": "8002"
  },
  {
    "district": "Kreis 2",
    "zip": "8002"
  },
  {
    "district": "Kreis 2",
    "zip": "8002"
  },
  {
    "district": "Kreis 4",
    "zip": "8004"
  },
  {
    "district": "Kreis 1",
    "zip": "8001"
  },
  {
    "district": "Kreis 8",
    "zip": "8008"
  },
  {
    "district": "Kreis 2",
    "zip": "8002"
  },
  {
    "district": "Kreis 2",
    "zip": "8002"
  },
  {
    "district": "Kreis 2",
    "zip": "8002"
  },
  {
    "district": "Kreis 2",
    "zip": "8002"
  },
  {
    "district": "Kreis 2",
    "zip": "8002"
  },
  {
    "district": "Kreis 2",
    "zip": "8002"
  },
  {
    "district": "Kreis 2",
    "zip": "8002"
  },
  {
    "district": "Kreis 1",
    "zip": "8001"
  },
  {
    "district": "Kreis 11",
    "zip": "8052"
  },
  {
    "district": "Kreis 3",
    "zip": "8003"
  },
  {
    "district": "Kreis 4",
    "zip": "8004"
  },
  {
    "district": "Kreis 11",
    "zip": "8046"
  },
  {
    "district": "Kreis 6",
    "zip": "8006"
  },
  {
    "district": "Kreis 2",
    "zip": "8002"
  },
  {
    "district": "Kreis 6",
    "zip": "8037"
  },
  {
    "district": "Kreis 1",
    "zip": "8092"
  },
  {
    "district": "Kreis 11",
    "zip": "8050"
  },
  {
    "district": "Kreis 2",
    "zip": "8038"
  },
  {
    "district": "Kreis 1",
    "zip": "8001"
  },
  {
    "district": "Kreis 1",
    "zip": "8090"
  },
  {
    "district": "Kreis 1",
    "zip": "8001"
  },
  {
    "district": "Kreis 9",
    "zip": "8049"
  },
  {
    "district": "Kreis 10",
    "zip": "8049"
  },
  {
    "district": "Kreis 9",
    "zip": "8048"
  },
  {
    "district": "Kreis 7",
    "zip": "8053"
  },
  {
    "district": "Kreis 3",
    "zip": "8003"
  },
  {
    "district": "Kreis 1",
    "zip": "8001"
  },
  {
    "district": "Kreis 1",
    "zip": "8001"
  },
  {
    "district": "Kreis 1",
    "zip": "8001"
  },
  {
    "district": "Kreis 2",
    "zip": "8038"
  },
  {
    "district": "Kreis 1",
    "zip": "8001"
  },
  {
    "district": "Kreis 1",
    "zip": "8001"
  },
  {
    "district": "Kreis 6",
    "zip": "8006"
  },
  {
    "district": "Kreis 6",
    "zip": "8006"
  },
  {
    "district": "Kreis 1",
    "zip": "8001"
  },
  {
    "district": "Kreis 11",
    "zip": "8052"
  },
  {
    "district": "Kreis 1",
    "zip": "8001"
  },
  {
    "district": "Kreis 11",
    "zip": "8046"
  },
  {
    "district": "Kreis 6",
    "zip": "8006"
  },
  {
    "district": "Kreis 1",
    "zip": "8001"
  },
  {
    "district": "Kreis 11",
    "zip": "8050"
  },
  {
    "district": "Kreis 6",
    "zip": "8006"
  },
  {
    "district": "Kreis 10",
    "zip": "8049"
  },
  {
    "district": "Kreis 1",
    "zip": "8001"
  },
  {
    "district": "Kreis 6",
    "zip": "8092"
  },
  {
    "district": "Kreis 1",
    "zip": "8022"
  },
  {
    "district": "Kreis 11",
    "zip": "8052"
  },
  {
    "district": "Kreis 9",
    "zip": "8047"
  },
  {
    "district": "Kreis 2",
    "zip": "8038"
  },
  {
    "district": "Kreis 6",
    "zip": "8042"
  },
  {
    "district": "Kreis 11",
    "zip": "8052"
  },
  {
    "district": "Kreis 6",
    "zip": "8006"
  },
  {
    "district": "Kreis 7",
    "zip": "8032"
  },
  {
    "district": "Kreis 2",
    "zip": "8002"
  },
  {
    "district": "Kreis 9",
    "zip": "8048"
  },
  {
    "district": "Kreis 8",
    "zip": "8008"
  },
  {
    "district": "Kreis 12",
    "zip": "8050"
  },
  {
    "district": "Kreis 11",
    "zip": "8050"
  },
  {
    "district": "Kreis 7",
    "zip": "8032"
  },
  {
    "district": "Kreis 2",
    "zip": "8002"
  },
  {
    "district": "Kreis 2",
    "zip": "8002"
  },
  {
    "district": "Kreis 2",
    "zip": "8002"
  },
  {
    "district": "Kreis 7",
    "zip": "8032"
  },
  {
    "district": "Kreis 7",
    "zip": "8053"
  },
  {
    "district": "Kreis 1",
    "zip": "8001"
  },
  {
    "district": "Kreis 7",
    "zip": "8053"
  },
  {
    "district": "Kreis 11",
    "zip": "8050"
  },
  {
    "district": "Kreis 5",
    "zip": "8005"
  },
  {
    "district": "Kreis 7",
    "zip": "8053"
  },
  {
    "district": "Kreis 7",
    "zip": "8032"
  },
  {
    "district": "Kreis 7",
    "zip": "8032"
  },
  {
    "district": "Kreis 7",
    "zip": "8032"
  },
  {
    "district": "Kreis 6",
    "zip": "8092"
  },
  {
    "district": "Kreis 2",
    "zip": "8002"
  },
  {
    "district": "Kreis 1",
    "zip": "8001"
  },
  {
    "district": "Kreis 8",
    "zip": "8008"
  },
  {
    "district": "Kreis 5",
    "zip": "8005"
  },
  {
    "district": "Kreis 3",
    "zip": "8003"
  },
  {
    "district": "Kreis 1",
    "zip": "8092"
  },
  {
    "district": "Kreis 6",
    "zip": "8057"
  },
  {
    "district": "Kreis 11",
    "zip": "8046"
  },
  {
    "district": "Kreis 1",
    "zip": "8001"
  },
  {
    "district": "Kreis 9",
    "zip": "8048"
  },
  {
    "district": "Kreis 2",
    "zip": "8002"
  },
  {
    "district": "Kreis 10",
    "zip": "8064"
  },
  {
    "district": "Kreis 8",
    "zip": "8008"
  },
  {
    "district": "Kreis 3",
    "zip": "8003"
  },
  {
    "district": "Kreis 1",
    "zip": "8001"
  },
  {
    "district": "Kreis 8",
    "zip": "8008"
  },
  {
    "district": "Kreis 11",
    "zip": "8050"
  },
  {
    "district": "Kreis 2",
    "zip": "8038"
  },
  {
    "district": "Kreis 1",
    "zip": "8092"
  },
  {
    "district": "Kreis 11",
    "zip": "8050"
  },
  {
    "district": "Kreis 9",
    "zip": "8048"
  },
  {
    "district": "Kreis 6",
    "zip": "8006"
  },
  {
    "district": "Kreis 4",
    "zip": "8004"
  },
  {
    "district": "Kreis 11",
    "zip": "8052"
  },
  {
    "district": "Kreis 11",
    "zip": "8052"
  },
  {
    "district": "Kreis 11",
    "zip": "8052"
  },
  {
    "district": "Kreis 11",
    "zip": "8052"
  },
  {
    "district": "Kreis 12",
    "zip": "8301"
  },
  {
    "district": "Kreis 8",
    "zip": "8008"
  },
  {
    "district": "Kreis 7",
    "zip": "8091"
  },
  {
    "district": "Kreis 10",
    "zip": "8049"
  },
  {
    "district": "Kreis 11",
    "zip": "8050"
  },
  {
    "district": "Kreis 4",
    "zip": "8004"
  },
  {
    "district": "Kreis 12",
    "zip": "8050"
  },
  {
    "district": "Kreis 11",
    "zip": "8052"
  },
  {
    "district": "Kreis 8",
    "zip": "8008"
  },
  {
    "district": "Kreis 1",
    "zip": "8001"
  },
  {
    "district": "Kreis 2",
    "zip": "8038"
  },
  {
    "district": "Kreis 4",
    "zip": "8004"
  },
  {
    "district": "Kreis 3",
    "zip": "8063"
  },
  {
    "district": "Kreis 11",
    "zip": "8050"
  },
  {
    "district": "Kreis 3",
    "zip": "8003"
  },
  {
    "district": "Kreis 1",
    "zip": "8001"
  },
  {
    "district": "Kreis 3",
    "zip": "8003"
  },
  {
    "district": "Kreis 3",
    "zip": "8003"
  },
  {
    "district": "Kreis 2",
    "zip": "8038"
  },
  {
    "district": "Kreis 2",
    "zip": "8038"
  },
  {
    "district": "Kreis 2",
    "zip": "8038"
  },
  {
    "district": "Kreis 2",
    "zip": "8038"
  },
  {
    "district": "Kreis 4",
    "zip": "8004"
  },
  {
    "district": "Kreis 3",
    "zip": "8003"
  },
  {
    "district": "Kreis 4",
    "zip": "8004"
  },
  {
    "district": "Kreis 3",
    "zip": "8003"
  },
  {
    "district": "Kreis 4",
    "zip": "8004"
  },
  {
    "district": "Kreis 4",
    "zip": "8004"
  },
  {
    "district": "Kreis 3",
    "zip": "8003"
  },
  {
    "district": "Kreis 1",
    "zip": "8001"
  },
  {
    "district": "Kreis 8",
    "zip": "8008"
  },
  {
    "district": "Kreis 1",
    "zip": "8001"
  },
  {
    "district": "Kreis 1",
    "zip": "8001"
  },
  {
    "district": "Kreis 1",
    "zip": "8001"
  },
  {
    "district": "Kreis 1",
    "zip": "8001"
  },
  {
    "district": "Kreis 11",
    "zip": "8037"
  },
  {
    "district": "Kreis 4",
    "zip": "8004"
  },
  {
    "district": "Kreis 6",
    "zip": "8006"
  },
  {
    "district": "Kreis 3",
    "zip": "8003"
  },
  {
    "district": "Kreis 6",
    "zip": "8006"
  },
  {
    "district": "Kreis 11",
    "zip": "8052"
  },
  {
    "district": "Kreis 11",
    "zip": "8046"
  },
  {
    "district": "Kreis 1",
    "zip": "8022"
  },
  {
    "district": "Kreis 6",
    "zip": "8006"
  },
  {
    "district": "Kreis 3",
    "zip": "8003"
  },
  {
    "district": "Kreis 7",
    "zip": "8008"
  },
  {
    "district": "Kreis 8",
    "zip": "8008"
  },
  {
    "district": "Kreis 8",
    "zip": "8008"
  },
  {
    "zip": "8008"
  },
  {
    "district": "Kreis 1",
    "zip": "8001"
  },
  {
    "district": "Kreis 6",
    "zip": "8006"
  },
  {
    "district": "Kreis 1",
    "zip": "8021"
  },
  {
    "district": "Kreis 2",
    "zip": "8038"
  },
  {
    "district": "Kreis 2",
    "zip": "8038"
  },
  {
    "district": "Kreis 11",
    "zip": "8046"
  },
  {
    "district": "Kreis 2",
    "zip": "8038"
  },
  {
    "district": "Kreis 11",
    "zip": "8050"
  },
  {
    "district": "Kreis 2",
    "zip": "8038"
  },
  {
    "district": "Kreis 6",
    "zip": "8006"
  },
  {
    "district": "Kreis 1",
    "zip": "8021"
  },
  {
    "district": "Kreis 6",
    "zip": "8006"
  },
  {
    "district": "Kreis 6",
    "zip": "8006"
  },
  {
    "district": "Kreis 11",
    "zip": "8052"
  },
  {
    "district": "Kreis 5",
    "zip": "8031"
  },
  {
    "district": "Kreis 2",
    "zip": "8002"
  },
  {
    "district": "Kreis 1",
    "zip": "8001"
  },
  {
    "district": "Kreis 2",
    "zip": "8038"
  },
  {
    "district": "Kreis 1",
    "zip": "8001"
  },
  {
    "district": "Kreis 6",
    "zip": "8006"
  },
  {
    "district": "Kreis 6",
    "zip": "8057"
  },
  {
    "district": "Kreis 2",
    "zip": "8038"
  },
  {
    "district": "Kreis 7",
    "zip": "8032"
  },
  {
    "district": "Kreis 1",
    "zip": "8001"
  },
  {
    "district": "Kreis 1",
    "zip": "8001"
  },
  {
    "district": "Kreis 2",
    "zip": "8038"
  },
  {
    "district": "Kreis 2",
    "zip": "8038"
  },
  {
    "district": "Kreis 11",
    "zip": "8050"
  },
  {
    "district": "Kreis 2",
    "zip": "8038"
  },
  {
    "district": "Kreis 2",
    "zip": "8002"
  },
  {
    "district": "Kreis 2",
    "zip": "8038"
  },
  {
    "district": "Kreis 2",
    "zip": "8038"
  },
  {
    "district": "Kreis 7",
    "zip": "8008"
  },
  {
    "district": "Kreis 1",
    "zip": "8001"
  },
  {
    "district": "Kreis 3",
    "zip": "8003"
  },
  {
    "district": "Kreis 1",
    "zip": "8001"
  },
  {
    "district": "Kreis 1",
    "zip": "8092"
  },
  {
    "district": "Kreis 6",
    "zip": "8057"
  },
  {
    "district": "Kreis 1",
    "zip": "8001"
  },
  {
    "district": "Kreis 9",
    "zip": "8047"
  },
  {
    "district": "Kreis 1",
    "zip": "8001"
  },
  {
    "district": "Kreis 11",
    "zip": "8046"
  },
  {
    "district": "Kreis 9",
    "zip": "8064"
  },
  {
    "district": "Kreis 1",
    "zip": "8001"
  },
  {
    "district": "Kreis 3",
    "zip": "8063"
  },
  {
    "district": "Kreis 11",
    "zip": "8050"
  },
  {
    "district": "Kreis 6",
    "zip": "8092"
  },
  {
    "district": "Kreis 11",
    "zip": "8050"
  },
  {
    "district": "Kreis 12",
    "zip": "8301"
  },
  {
    "district": "Kreis 11",
    "zip": "8050"
  },
  {
    "district": "Kreis 11",
    "zip": "8052"
  },
  {
    "district": "Kreis 1",
    "zip": "8090"
  },
  {
    "district": "Kreis 4",
    "zip": "8004"
  },
  {
    "district": "Kreis 2",
    "zip": "8002"
  },
  {
    "district": "Kreis 2",
    "zip": "8002"
  },
  {
    "district": "Kreis 2",
    "zip": "8002"
  },
  {
    "district": "Kreis 11",
    "zip": "8052"
  },
  {
    "district": "Kreis 11",
    "zip": "8046"
  },
  {
    "district": "Kreis 1",
    "zip": "8092"
  },
  {
    "district": "Kreis 1",
    "zip": "8001"
  },
  {
    "district": "Kreis 1",
    "zip": "8092"
  },
  {
    "district": "Kreis 5",
    "zip": "8005"
  },
  {
    "district": "Kreis 11",
    "zip": "8046"
  },
  {
    "district": "Kreis 11",
    "zip": "8052"
  },
  {
    "district": "Kreis 11",
    "zip": "8052"
  },
  {
    "district": "Kreis 11",
    "zip": "8046"
  },
  {
    "district": "Kreis 11",
    "zip": "8057"
  },
  {
    "district": "Kreis 11",
    "zip": "8046"
  },
  {
    "district": "Kreis 11",
    "zip": "8052"
  },
  {
    "district": "Kreis 10",
    "zip": "8037"
  },
  {
    "district": "Kreis 7",
    "zip": "8032"
  },
  {
    "district": "Kreis 7",
    "zip": "8032"
  },
  {
    "district": "Kreis 10",
    "zip": "8037"
  },
  {
    "district": "Kreis 10",
    "zip": "8031"
  },
  {
    "district": "Kreis 6",
    "zip": "8006"
  },
  {
    "district": "Kreis 10",
    "zip": "8042"
  },
  {
    "district": "Kreis 2",
    "zip": "8038"
  },
  {
    "district": "Kreis 2",
    "zip": "8038"
  },
  {
    "district": "Kreis 2",
    "zip": "8038"
  },
  {
    "district": "Kreis 11",
    "zip": "8050"
  },
  {
    "district": "Kreis 11",
    "zip": "8052"
  },
  {
    "district": "Kreis 11",
    "zip": "8050"
  },
  {
    "district": "Kreis 11",
    "zip": "8046"
  },
  {
    "district": "Kreis 8",
    "zip": "8008"
  },
  {
    "district": "Kreis 3",
    "zip": "8003"
  },
  {
    "district": "Kreis 5",
    "zip": "8005"
  },
  {
    "district": "Kreis 7",
    "zip": "8044"
  },
  {
    "district": "Kreis 2",
    "zip": "8038"
  },
  {
    "district": "Kreis 1",
    "zip": "8092"
  },
  {
    "district": "Kreis 6",
    "zip": "8006"
  },
  {
    "district": "Kreis 10",
    "zip": "8037"
  },
  {
    "district": "Kreis 11",
    "zip": "8052"
  },
  {
    "district": "Kreis 1",
    "zip": "8092"
  },
  {
    "district": "Kreis 6",
    "zip": "8031"
  },
  {
    "district": "Kreis 9",
    "zip": "8047"
  },
  {
    "district": "Kreis 12",
    "zip": "8051"
  },
  {
    "district": "Kreis 1",
    "zip": "8001"
  },
  {
    "district": "Kreis 1",
    "zip": "8001"
  },
  {
    "district": "Kreis 1",
    "zip": "8001"
  },
  {
    "district": "Kreis 1",
    "zip": "8001"
  },
  {
    "district": "Kreis 6",
    "zip": "8006"
  },
  {
    "district": "Kreis 5",
    "zip": "8005"
  },
  {
    "district": "Kreis 5",
    "zip": "8005"
  },
  {
    "district": "Kreis 10",
    "zip": "8037"
  },
  {
    "district": "Kreis 11",
    "zip": "8046"
  },
  {
    "district": "Kreis 2",
    "zip": "8038"
  },
  {
    "district": "Kreis 2",
    "zip": "8038"
  },
  {
    "district": "Kreis 6",
    "zip": "8006"
  },
  {
    "district": "Kreis 11",
    "zip": "8050"
  },
  {
    "district": "Kreis 11",
    "zip": "8052"
  },
  {
    "district": "Kreis 1",
    "zip": "8001"
  },
  {
    "district": "Kreis 2",
    "zip": "8038"
  },
  {
    "district": "Kreis 2",
    "zip": "8038"
  },
  {
    "district": "Kreis 2",
    "zip": "8038"
  },
  {
    "district": "Kreis 2",
    "zip": "8038"
  },
  {
    "district": "Kreis 11",
    "zip": "8046"
  },
  {
    "district": "Kreis 1",
    "zip": "8001"
  },
  {
    "district": "Kreis 10",
    "zip": "8064"
  },
  {
    "district": "Kreis 2",
    "zip": "8041"
  },
  {
    "district": "Kreis 8",
    "zip": "8008"
  },
  {
    "district": "Kreis 8",
    "zip": "8008"
  },
  {
    "district": "Kreis 9",
    "zip": "8048"
  },
  {
    "district": "Kreis 4",
    "zip": "8004"
  },
  {
    "district": "Kreis 2",
    "zip": "8038"
  },
  {
    "district": "Kreis 1",
    "zip": "8022"
  },
  {
    "district": "Kreis 9",
    "zip": "8047"
  },
  {
    "district": "Kreis 11",
    "zip": "8052"
  },
  {
    "district": "Kreis 1",
    "zip": "8001"
  },
  {
    "district": "Kreis 11",
    "zip": "8046"
  },
  {
    "district": "Kreis 6",
    "zip": "8006"
  },
  {
    "district": "Kreis 11",
    "zip": "8046"
  },
  {
    "district": "Kreis 8",
    "zip": "8008"
  },
  {
    "district": "Kreis 8",
    "zip": "8008"
  },
  {
    "district": "Kreis 8",
    "zip": "8008"
  },
  {
    "district": "Kreis 8",
    "zip": "8008"
  },
  {
    "district": "Kreis 8",
    "zip": "8008"
  },
  {
    "district": "Kreis 6",
    "zip": "8092"
  },
  {
    "district": "Kreis 1",
    "zip": "8001"
  },
  {
    "district": "Kreis 4",
    "zip": "8004"
  },
  {
    "district": "Kreis 1",
    "zip": "8001"
  },
  {
    "district": "Kreis 1",
    "zip": "8001"
  },
  {
    "district": "Kreis 5",
    "zip": "8005"
  },
  {
    "district": "Kreis 11",
    "zip": "8050"
  },
  {
    "district": "Kreis 10",
    "zip": "8049"
  },
  {
    "district": "Kreis 1",
    "zip": "8001"
  },
  {
    "district": "Kreis 1",
    "zip": "8001"
  },
  {
    "district": "Kreis 1",
    "zip": "8001"
  },
  {
    "district": "Kreis 11",
    "zip": "8052"
  },
  {
    "district": "Kreis 7",
    "zip": "8032"
  },
  {
    "district": "Kreis 8",
    "zip": "8008"
  },
  {
    "district": "Kreis 2",
    "zip": "8038"
  },
  {
    "district": "Kreis 2",
    "zip": "8002"
  },
  {
    "district": "Kreis 8",
    "zip": "8008"
  },
  {
    "district": "Kreis 2",
    "zip": "8002"
  },
  {
    "district": "Kreis 1",
    "zip": "8001"
  },
  {
    "district": "Kreis 9",
    "zip": "8048"
  },
  {
    "district": "Kreis 1",
    "zip": "8001"
  },
  {
    "district": "Kreis 1",
    "zip": "8022"
  },
  {
    "district": "Kreis 2",
    "zip": "8002"
  },
  {
    "district": "Kreis 9",
    "zip": "8064"
  },
  {
    "district": "Kreis 2",
    "zip": "8002"
  },
  {
    "district": "Kreis 2",
    "zip": "8002"
  },
  {
    "district": "Kreis 2",
    "zip": "8002"
  },
  {
    "district": "Kreis 12",
    "zip": "8050"
  },
  {
    "district": "Kreis 5",
    "zip": "8005"
  },
  {
    "district": "Kreis 3",
    "zip": "8055"
  },
  {
    "district": "Kreis 1",
    "zip": "8001"
  },
  {
    "district": "Kreis 2",
    "zip": "8038"
  },
  {
    "district": "Kreis 2",
    "zip": "8038"
  },
  {
    "district": "Kreis 8",
    "zip": "8008"
  },
  {
    "district": "Kreis 8",
    "zip": "8008"
  },
  {
    "district": "Kreis 1",
    "zip": "8001"
  },
  {
    "district": "Kreis 1",
    "zip": "8001"
  },
  {
    "district": "Kreis 2",
    "zip": "8038"
  },
  {
    "district": "Kreis 8",
    "zip": "8008"
  },
  {
    "district": "Kreis 1",
    "zip": "8001"
  },
  {
    "district": "Kreis 1",
    "zip": "8092"
  },
  {
    "district": "Kreis 1",
    "zip": "8092"
  },
  {
    "district": "Kreis 8",
    "zip": "8008"
  },
  {
    "district": "Kreis 2",
    "zip": "8002"
  },
  {
    "district": "Kreis 1",
    "zip": "8001"
  },
  {
    "district": "Kreis 1",
    "zip": "8001"
  },
  {
    "district": "Kreis 2",
    "zip": "8038"
  },
  {
    "district": "Kreis 1",
    "zip": "8001"
  },
  {
    "district": "Kreis 1",
    "zip": "8022"
  },
  {
    "district": "Kreis 11",
    "zip": "8046"
  },
  {
    "district": "Kreis 2",
    "zip": "8038"
  },
  {
    "district": "Kreis 1",
    "zip": "8001"
  },
  {
    "district": "Kreis 11",
    "zip": "8046"
  },
  {
    "district": "Kreis 11",
    "zip": "8046"
  },
  {
    "district": "Kreis 11",
    "zip": "8046"
  },
  {
    "district": "Kreis 11",
    "zip": "8046"
  },
  {
    "district": "Kreis 11",
    "zip": "8046"
  },
  {
    "district": "Kreis 11",
    "zip": "8046"
  },
  {
    "district": "Kreis 4",
    "zip": "8004"
  },
  {
    "district": "Kreis 1",
    "zip": "8001"
  },
  {
    "district": "Kreis 2",
    "zip": "8002"
  },
  {
    "district": "Kreis 1",
    "zip": "8001"
  },
  {
    "district": "Kreis 11",
    "zip": "8052"
  },
  {
    "district": "Kreis 11",
    "zip": "8050"
  },
  {
    "district": "Kreis 1",
    "zip": "8092"
  },
  {
    "district": "Kreis 1",
    "zip": "8001"
  },
  {
    "district": "Kreis 10",
    "zip": "8037"
  },
  {
    "district": "Kreis 10",
    "zip": "8037"
  },
  {
    "district": "Kreis 8",
    "zip": "8008"
  },
  {
    "district": "Kreis 1",
    "zip": "8001"
  },
  {
    "district": "Kreis 8",
    "zip": "8008"
  },
  {
    "district": "Kreis 8",
    "zip": "8008"
  },
  {
    "district": "Kreis 8",
    "zip": "8008"
  },
  {
    "district": "Kreis 11",
    "zip": "8046"
  },
  {
    "district": "Kreis 11",
    "zip": "8046"
  },
  {
    "district": "Kreis 11",
    "zip": "8046"
  },
  {
    "district": "Kreis 11",
    "zip": "8046"
  },
  {
    "district": "Kreis 5",
    "zip": "8005"
  },
  {
    "district": "Kreis 2",
    "zip": "8038"
  },
  {
    "district": "Kreis 10",
    "zip": "8037"
  },
  {
    "district": "Kreis 3",
    "zip": "8003"
  },
  {
    "district": "Kreis 1",
    "zip": "8001"
  },
  {
    "district": "Kreis 2",
    "zip": "8038"
  },
  {
    "district": "Kreis 2",
    "zip": "8038"
  },
  {
    "district": "Kreis 2",
    "zip": "8038"
  },
  {
    "district": "Kreis 1",
    "zip": "8001"
  },
  {
    "district": "Kreis 2",
    "zip": "8002"
  },
  {
    "district": "Kreis 2",
    "zip": "8002"
  },
  {
    "district": "Kreis 1",
    "zip": "8092"
  },
  {
    "district": "Kreis 1",
    "zip": "8001"
  },
  {
    "district": "Kreis 1",
    "zip": "8001"
  },
  {
    "district": "Kreis 11",
    "zip": "8052"
  },
  {
    "district": "Kreis 11",
    "zip": "8052"
  },
  {
    "district": "Kreis 11",
    "zip": "8050"
  },
  {
    "district": "Kreis 1",
    "zip": "8001"
  },
  {
    "district": "Kreis 10",
    "zip": "8037"
  },
  {
    "district": "Kreis 10",
    "zip": "8037"
  },
  {
    "district": "Kreis 5",
    "zip": "8005"
  },
  {
    "district": "Kreis 1",
    "zip": "8001"
  },
  {
    "district": "Kreis 1",
    "zip": "8001"
  },
  {
    "district": "Kreis 1",
    "zip": "8001"
  },
  {
    "district": "Kreis 7",
    "zip": "8053"
  },
  {
    "district": "Kreis 5",
    "zip": "8005"
  },
  {
    "district": "Kreis 8",
    "zip": "8008"
  },
  {
    "district": "Kreis 2",
    "zip": "8038"
  },
  {
    "district": "Kreis 1",
    "zip": "8001"
  },
  {
    "zip": "8038"
  },
  {
    "district": "Kreis 9",
    "zip": "8064"
  },
  {
    "district": "Kreis 9",
    "zip": "8047"
  },
  {
    "district": "Kreis 6",
    "zip": "8006"
  },
  {
    "district": "Kreis 10",
    "zip": "8037"
  },
  {
    "district": "Kreis 5",
    "zip": "8005"
  },
  {
    "district": "Kreis 11",
    "zip": "8050"
  },
  {
    "district": "Kreis 3",
    "zip": "8045"
  },
  {
    "district": "Kreis 5",
    "zip": "8005"
  },
  {
    "district": "Kreis 1",
    "zip": "8001"
  },
  {
    "district": "Kreis 11",
    "zip": "8052"
  },
  {
    "district": "Kreis 2",
    "zip": "8038"
  },
  {
    "district": "Kreis 7",
    "zip": "8044"
  },
  {
    "district": "Kreis 1",
    "zip": "8001"
  },
  {
    "district": "Kreis 8",
    "zip": "8008"
  },
  {
    "district": "Kreis 8",
    "zip": "8008"
  },
  {
    "district": "Kreis 11",
    "zip": "8052"
  },
  {
    "district": "Kreis 1",
    "zip": "8092"
  },
  {
    "district": "Kreis 1",
    "zip": "8001"
  },
  {
    "district": "Kreis 1",
    "zip": "8092"
  },
  {
    "district": "Kreis 1",
    "zip": "8001"
  },
  {
    "district": "Kreis 3",
    "zip": "8063"
  },
  {
    "district": "Kreis 2",
    "zip": "8038"
  },
  {
    "district": "Kreis 1",
    "zip": "8001"
  },
  {
    "district": "Kreis 2",
    "zip": "8002"
  },
  {
    "district": "Kreis 7",
    "zip": "8032"
  },
  {
    "district": "Kreis 1",
    "zip": "8001"
  },
  {
    "district": "Kreis 8",
    "zip": "8008"
  },
  {
    "district": "Kreis 5",
    "zip": "8005"
  },
  {
    "district": "Kreis 1",
    "zip": "8021"
  },
  {
    "district": "Kreis 1",
    "zip": "8001"
  },
  {
    "district": "Kreis 11",
    "zip": "8052"
  },
  {
    "district": "Kreis 2",
    "zip": "8002"
  },
  {
    "district": "Kreis 3",
    "zip": "8063"
  },
  {
    "district": "Kreis 8",
    "zip": "8008"
  },
  {
    "district": "Kreis 8",
    "zip": "8008"
  },
  {
    "district": "Kreis 1",
    "zip": "8001"
  },
  {
    "district": "Kreis 10",
    "zip": "8037"
  },
  {
    "district": "Kreis 2",
    "zip": "8002"
  },
  {
    "district": "Kreis 10",
    "zip": "8049"
  },
  {
    "district": "Kreis 6",
    "zip": "8006"
  },
  {
    "district": "Kreis 5",
    "zip": "8005"
  },
  {
    "district": "Kreis 1",
    "zip": "8001"
  },
  {
    "district": "Kreis 5",
    "zip": "8005"
  },
  {
    "district": "Kreis 11",
    "zip": "8050"
  },
  {
    "district": "Kreis 4",
    "zip": "8004"
  },
  {
    "district": "Kreis 8",
    "zip": "8008"
  },
  {
    "district": "Kreis 9",
    "zip": "8047"
  },
  {
    "district": "Kreis 1",
    "zip": "8001"
  },
  {
    "district": "Kreis 7",
    "zip": "8032"
  },
  {
    "district": "Kreis 8",
    "zip": "8008"
  },
  {
    "district": "Kreis 7",
    "zip": "8044"
  },
  {
    "district": "Kreis 10",
    "zip": "8049"
  },
  {
    "district": "Kreis 10",
    "zip": "8049"
  },
  {
    "district": "Kreis 11",
    "zip": "8046"
  },
  {
    "district": "Kreis 2",
    "zip": "8002"
  },
  {
    "district": "Kreis 2",
    "zip": "8002"
  },
  {
    "district": "Kreis 2",
    "zip": "8002"
  },
  {
    "district": "Kreis 8",
    "zip": "8008"
  },
  {
    "district": "Kreis 6",
    "zip": "8006"
  },
  {
    "district": "Kreis 6",
    "zip": "8006"
  },
  {
    "district": "Kreis 1",
    "zip": "8022"
  },
  {
    "district": "Kreis 11",
    "zip": "8046"
  },
  {
    "district": "Kreis 2",
    "zip": "8038"
  },
  {
    "district": "Kreis 6",
    "zip": "8092"
  },
  {
    "district": "Kreis 6",
    "zip": "8092"
  },
  {
    "district": "Kreis 6",
    "zip": "8092"
  },
  {
    "district": "Kreis 11",
    "zip": "8046"
  },
  {
    "district": "Kreis 11",
    "zip": "8052"
  },
  {
    "district": "Kreis 6",
    "zip": "8006"
  },
  {
    "district": "Kreis 2",
    "zip": "8041"
  },
  {
    "district": "Kreis 11",
    "zip": "8052"
  },
  {
    "district": "Kreis 8",
    "zip": "8008"
  },
  {
    "district": "Kreis 8",
    "zip": "8008"
  },
  {
    "district": "Kreis 11",
    "zip": "8046"
  },
  {
    "district": "Kreis 6",
    "zip": "8006"
  },
  {
    "district": "Kreis 4",
    "zip": "8004"
  },
  {
    "district": "Kreis 9",
    "zip": "8064"
  }
]